{
  "type": "FeatureCollection",
  "features": [
    {"type":"Feature","geometry":{"type":"Polygon","coordinates":[[[-72.5279,41.1778],[-72.0818,41.2622],[-72.0192,41.2906],[-71.9995,41.2958],[-71.9295,41.3104],[-71.9073,41.3045],[-71.8921,41.3301],[-71.8665,41.3192],[-71.8575,41.3208],[-71.8294,41.3424],[-71.8313,41.3513],[-71.836,41.354],[-71.8379,41.3601],[-71.8306,41.3788],[-71.8331,41.3878],[-71.8422,41.3954],[-71.8436,41.4053],[-71.8397,41.4122],[-71.8254,41.4147],[-71.8203,41.4194],[-71.7977,41.4167],[-71.7882,41.621],[-71.7872,41.6561],[-71.8007,42.0235],[-72.5315,42.0346],[-72.5728,42.0302],[-72.5822,42.0247],[-72.6072,42.0251],[-72.608,42.0311],[-72.6993,42.037],[-72.7559,42.0363],[-72.7573,42.0334],[-72.7521,42.029],[-72.7573,42.021],[-72.7653,42.0224],[-72.7658,42.0196],[-72.759,42.0155],[-72.763,42.0135],[-72.7615,42.0093],[-72.7663,42.0079],[-72.7667,42.0033],[-72.8171,41.9977],[-72.8138,42.0367],[-73.0368,42.0393],[-73.4285,42.0505],[-73.4873,42.0495],[-73.521,41.6198],[-73.551,41.2954],[-73.4827,41.2128],[-73.7278,41.1007],[-73.6553,41.0122],[-73.6603,41.0005],[-73.6572,40.9909],[-73.6597,40.9879],[-73.6568,40.9845],[-73.6129,40.9509],[-73.2496,41.0259],[-72.9995,41.0871],[-72.5279,41.1778]]]},"properties":{"STUSAB":"CT","NAME":"Connecticut","AREALAND":"12542136566","AREAWATER":"1815978067"}},
    {"type":"Feature","geometry":{"type":"Polygon","coordinates":[[[-75.5095,39.6865],[-75.5099,39.6939],[-75.4963,39.701],[-75.4885,39.7147],[-75.4794,39.7137],[-75.4764,39.7162],[-75.4757,39.7337],[-75.4622,39.7632],[-75.4523,39.769],[-75.4507,39.7751],[-75.4383,39.7844],[-75.4054,39.7964],[-75.4529,39.8202],[-75.5059,39.8348],[-75.5619,39.8395],[-75.6181,39.834],[-75.6658,39.8203],[-75.7078,39.7986],[-75.7475,39.7642],[-75.7738,39.7222],[-75.7886,39.7222],[-75.7886,39.6496],[-75.6937,38.4601],[-75.4109,38.4523],[-74.9863,38.4516],[-74.9852,38.5282],[-74.9935,38.6125],[-75.002,38.6317],[-75.0028,38.6833],[-75.0142,38.745],[-75.0161,38.7905],[-75.1685,39.0562],[-75.1917,39.079],[-75.249,39.1589],[-75.321,39.2514],[-75.4694,39.3731],[-75.4814,39.3876],[-75.5605,39.4556],[-75.5636,39.483],[-75.5591,39.4958],[-75.527,39.4992],[-75.5301,39.5054],[-75.5268,39.5314],[-75.534,39.5407],[-75.5191,39.5554],[-75.512,39.5673],[-75.5147,39.5809],[-75.5277,39.5841],[-75.5375,39.5936],[-75.5535,39.6018],[-75.5574,39.6091],[-75.5588,39.63],[-75.542,39.6454],[-75.5335,39.6476],[-75.5157,39.6661],[-75.5095,39.6865]]]},"properties":{"STUSAB":"DE","NAME":"Delaware","AREALAND":"5046806309","AREAWATER":"1399105001"}},
    {"type":"Feature","geometry":{"type":"Polygon","coordinates":[[[-71.2551,42.7366],[-71.2946,42.697],[-72.8091,42.7366],[-73.2648,42.7459],[-73.5082,42.0861],[-73.497,42.0496],[-73.4285,42.0505],[-73.0368,42.0393],[-72.8138,42.0367],[-72.8171,41.9977],[-72.7667,42.0033],[-72.7663,42.0079],[-72.7615,42.0093],[-72.763,42.0135],[-72.759,42.0155],[-72.7658,42.0196],[-72.7653,42.0224],[-72.7573,42.021],[-72.7521,42.029],[-72.7573,42.0334],[-72.7559,42.0363],[-72.6993,42.037],[-72.608,42.0311],[-72.6072,42.0251],[-72.5822,42.0247],[-72.5728,42.0302],[-72.5315,42.0346],[-71.8007,42.0235],[-71.7992,42.0081],[-71.3814,42.0188],[-71.3815,41.8935],[-71.3388,41.8986],[-71.3409,41.8818],[-71.334,41.8626],[-71.3426,41.8447],[-71.3354,41.8356],[-71.3475,41.8232],[-71.3393,41.8085],[-71.3405,41.797],[-71.3295,41.7883],[-71.3285,41.7807],[-71.2611,41.7521],[-71.1955,41.6751],[-71.1758,41.6715],[-71.1761,41.6682],[-71.1326,41.6604],[-71.1353,41.6285],[-71.1402,41.6239],[-71.142,41.6125],[-71.1403,41.6048],[-71.1316,41.5937],[-71.1211,41.4928],[-71.0886,41.4313],[-71.085,41.4335],[-71.0535,41.417],[-71.0336,41.4141],[-71.0399,41.3983],[-71.0327,41.3803],[-71.0148,41.362],[-70.9907,41.3513],[-70.9558,41.3502],[-70.896,41.3701],[-70.9037,41.3551],[-70.901,41.3346],[-70.8845,41.3102],[-70.87,41.2971],[-70.8857,41.2851],[-70.8903,41.2774],[-70.8936,41.268],[-70.8925,41.2501],[-70.885,41.2338],[-70.8663,41.2154],[-70.8477,41.2058],[-70.8236,41.2006],[-70.8059,41.1987],[-70.7836,41.2012],[-70.7678,41.2065],[-70.7495,41.2202],[-70.7348,41.2463],[-70.7348,41.2592],[-70.7165,41.2695],[-70.7031,41.289],[-70.6551,41.2962],[-70.5718,41.3001],[-70.5122,41.2983],[-70.4933,41.28],[-70.4599,41.2653],[-70.4291,41.2687],[-70.4087,41.2773],[-70.3745,41.2695],[-70.3441,41.2761],[-70.2857,41.2423],[-70.24,41.2285],[-70.1789,41.2045],[-70.1097,41.1898],[-70.0727,41.1916],[-70.0257,41.1871],[-69.9995,41.1883],[-69.9536,41.1997],[-69.9158,41.2209],[-69.899,41.2455],[-69.8945,41.2592],[-69.8922,41.2713],[-69.8949,41.2904],[-69.9101,41.3173],[-69.9696,41.4035],[-70.0065,41.4339],[-70.0259,41.4411],[-70.0443,41.4438],[-70.0652,41.4427],[-70.0944,41.4308],[-70.1058,41.4199],[-70.1165,41.3951],[-70.1113,41.3704],[-70.0978,41.3536],[-70.1193,41.3526],[-70.1379,41.3464],[-70.1487,41.3452],[-70.1749,41.3573],[-70.2151,41.3603],[-70.2216,41.3718],[-70.2381,41.3862],[-70.2673,41.3934],[-70.3024,41.3896],[-70.3236,41.3916],[-70.3531,41.3815],[-70.3701,41.3688],[-70.3834,41.3699],[-70.3808,41.412],[-70.3859,41.4337],[-70.3929,41.4455],[-70.4059,41.457],[-70.4364,41.4689],[-70.464,41.468],[-70.4897,41.463],[-70.4949,41.4796],[-70.5086,41.499],[-70.4664,41.5062],[-70.4486,41.5131],[-70.4239,41.5287],[-70.3952,41.5567],[-70.3463,41.5685],[-70.3113,41.5711],[-70.2789,41.5593],[-70.2495,41.5601],[-70.2256,41.5686],[-70.208,41.5842],[-70.1815,41.5935],[-70.1604,41.5994],[-70.127,41.6002],[-70.0779,41.6125],[-70.0686,41.6107],[-70.0634,41.5902],[-70.0803,41.5645],[-70.102,41.5564],[-70.1226,41.5378],[-70.1286,41.5247],[-70.1267,41.5037],[-70.1144,41.4841],[-70.1015,41.4744],[-70.0849,41.4675],[-70.0554,41.4641],[-70.0237,41.4719],[-70.0139,41.4774],[-69.9982,41.4934],[-69.9713,41.4989],[-69.9582,41.5047],[-69.9466,41.5122],[-69.929,41.5322],[-69.9154,41.5892],[-69.8986,41.6061],[-69.8681,41.6568],[-69.8605,41.6923],[-69.8591,41.7365],[-69.8665,41.817],[-69.8953,41.9068],[-69.9177,41.9592],[-69.9291,41.9785],[-69.9963,42.0597],[-70.0116,42.0734],[-70.0403,42.0916],[-70.0671,42.1053],[-70.1207,42.1251],[-70.1725,42.1345],[-70.2292,42.1312],[-70.2495,42.1269],[-70.2774,42.1143],[-70.6084,42.1385],[-70.6429,42.1782],[-70.6363,42.2029],[-70.6401,42.2284],[-70.6486,42.2374],[-70.6841,42.2538],[-70.6887,42.2635],[-70.6904,42.279],[-70.6063,42.5312],[-70.5827,42.553],[-70.5454,42.5701],[-70.5218,42.5935],[-70.5021,42.6246],[-70.5021,42.6355],[-70.5139,42.6806],[-70.5297,42.707],[-70.5493,42.7242],[-70.6259,42.7397],[-70.6613,42.7366],[-70.7026,42.7242],[-70.7143,42.7319],[-70.7193,42.7501],[-70.7258,42.759],[-70.7372,42.788],[-70.7337,42.8037],[-70.7349,42.8245],[-70.7455,42.8444],[-70.7488,42.8588],[-70.735,42.8747],[-70.8202,42.8718],[-70.8477,42.8609],[-70.8856,42.8828],[-70.9035,42.8868],[-70.9296,42.885],[-70.967,42.8688],[-71.0312,42.8591],[-71.0449,42.8487],[-71.0644,42.8063],[-71.1328,42.8215],[-71.1666,42.8089],[-71.1861,42.7909],[-71.1818,42.7373],[-71.2238,42.7465],[-71.2454,42.7425],[-71.2551,42.7366]]]},"properties":{"STUSAB":"MA","NAME":"Massachusetts","AREALAND":"20204476757","AREAWATER":"7130573767"}},
    {"type":"Feature","geometry":{"type":"Polygon","coordinates":[[[-75.756,39.2461],[-75.7887,39.6505],[-75.7886,39.7222],[-76.9909,39.7198],[-78.3151,39.7229],[-79.4767,39.7211],[-79.4789,39.5317],[-79.4824,39.5317],[-79.4877,39.2799],[-79.4869,39.2059],[-79.4732,39.2021],[-79.4674,39.2088],[-79.4533,39.2105],[-79.433,39.2239],[-79.4257,39.2253],[-79.4252,39.2345],[-79.4207,39.2354],[-79.4203,39.2389],[-79.4122,39.2402],[-79.3933,39.2616],[-79.3874,39.2635],[-79.3873,39.2678],[-79.3819,39.2669],[-79.376,39.2732],[-79.3575,39.2763],[-79.3523,39.2802],[-79.3513,39.2851],[-79.3449,39.285],[-79.346,39.294],[-79.3404,39.2937],[-79.3326,39.3001],[-79.3213,39.3],[-79.3139,39.3047],[-79.3034,39.2996],[-79.2904,39.2995],[-79.2839,39.3098],[-79.2821,39.3233],[-79.2704,39.3289],[-79.2687,39.3362],[-79.2602,39.3343],[-79.2538,39.3371],[-79.2574,39.3419],[-79.2535,39.3479],[-79.2563,39.3572],[-79.2506,39.3555],[-79.2426,39.3594],[-79.235,39.3587],[-79.231,39.3649],[-79.2143,39.3635],[-79.2126,39.3702],[-79.2024,39.3788],[-79.1977,39.3884],[-79.1856,39.3852],[-79.177,39.389],[-79.1811,39.3944],[-79.1792,39.3965],[-79.1661,39.3874],[-79.1623,39.3881],[-79.1667,39.4009],[-79.1594,39.4095],[-79.1595,39.417],[-79.1512,39.417],[-79.15,39.4061],[-79.1438,39.4052],[-79.1411,39.4087],[-79.1418,39.4171],[-79.1274,39.4182],[-79.129,39.4295],[-79.124,39.4332],[-79.1108,39.4319],[-79.1169,39.4389],[-79.1028,39.4505],[-79.1018,39.4572],[-79.1083,39.4571],[-79.1079,39.4612],[-79.0945,39.4648],[-79.1044,39.4708],[-79.1055,39.4739],[-79.1024,39.4764],[-79.083,39.4715],[-79.0693,39.474],[-79.0663,39.48],[-79.061,39.4719],[-79.0569,39.4707],[-79.0527,39.4817],[-79.047,39.4833],[-79.037,39.4767],[-79.0309,39.4653],[-79.018,39.4677],[-79.0109,39.4611],[-78.9777,39.4483],[-78.9657,39.4385],[-78.9566,39.4403],[-78.956,39.4478],[-78.9605,39.451],[-78.9543,39.4547],[-78.9589,39.4628],[-78.9425,39.4689],[-78.9385,39.4746],[-78.9425,39.4806],[-78.9343,39.4863],[-78.9167,39.4863],[-78.9041,39.5041],[-78.9055,39.5115],[-78.8924,39.5133],[-78.8931,39.524],[-78.8751,39.5227],[-78.8694,39.5318],[-78.8707,39.5388],[-78.8614,39.541],[-78.8521,39.551],[-78.851,39.5601],[-78.8392,39.567],[-78.8219,39.5606],[-78.8158,39.5629],[-78.8132,39.5672],[-78.8149,39.5713],[-78.8199,39.5763],[-78.8262,39.5773],[-78.8257,39.5892],[-78.8193,39.5899],[-78.8184,39.5941],[-78.8119,39.598],[-78.809,39.6082],[-78.7965,39.6059],[-78.7958,39.6134],[-78.8016,39.6277],[-78.7975,39.6293],[-78.7953,39.6368],[-78.7812,39.6368],[-78.776,39.6453],[-78.7664,39.6484],[-78.7648,39.6447],[-78.7726,39.6369],[-78.778,39.6223],[-78.7634,39.6188],[-78.7468,39.6267],[-78.7368,39.6222],[-78.7331,39.6147],[-78.747,39.6056],[-78.7512,39.61],[-78.7608,39.6101],[-78.7771,39.6039],[-78.778,39.6013],[-78.7608,39.5827],[-78.7463,39.5798],[-78.7402,39.5864],[-78.7335,39.5865],[-78.7316,39.5746],[-78.7246,39.5639],[-78.7146,39.5628],[-78.7075,39.5558],[-78.695,39.5538],[-78.6898,39.546],[-78.6756,39.5402],[-78.6535,39.5346],[-78.6231,39.5397],[-78.6034,39.532],[-78.5916,39.5369],[-78.5922,39.5317],[-78.5876,39.5277],[-78.5786,39.5267],[-78.5654,39.5193],[-78.5231,39.5249],[-78.5033,39.5186],[-78.4672,39.5172],[-78.4612,39.5239],[-78.4624,39.5364],[-78.4485,39.5404],[-78.4499,39.5434],[-78.4605,39.5462],[-78.4611,39.5508],[-78.4504,39.5498],[-78.4379,39.5385],[-78.4346,39.5422],[-78.4391,39.5508],[-78.4377,39.5534],[-78.4315,39.5523],[-78.4245,39.5452],[-78.417,39.5486],[-78.4263,39.5592],[-78.4543,39.5741],[-78.458,39.5797],[-78.4568,39.5876],[-78.4435,39.5913],[-78.4074,39.5786],[-78.3948,39.5852],[-78.3989,39.5916],[-78.4255,39.6077],[-78.4335,39.6182],[-78.4301,39.6234],[-78.4205,39.6241],[-78.3965,39.6164],[-78.3839,39.609],[-78.3756,39.6083],[-78.372,39.6119],[-78.3834,39.6229],[-78.3824,39.6278],[-78.3738,39.6304],[-78.3555,39.6261],[-78.3535,39.6306],[-78.3593,39.6372],[-78.3553,39.6407],[-78.3109,39.6306],[-78.286,39.6212],[-78.2661,39.6191],[-78.2623,39.6305],[-78.2541,39.6402],[-78.2238,39.6605],[-78.2326,39.6736],[-78.2271,39.6762],[-78.2022,39.6769],[-78.191,39.6903],[-78.1765,39.696],[-78.1053,39.6817],[-78.0895,39.6714],[-78.0806,39.6705],[-78.0373,39.637],[-78.0101,39.603],[-77.9776,39.5996],[-77.9672,39.6071],[-77.955,39.6081],[-77.9506,39.6038],[-77.951,39.5895],[-77.9461,39.5848],[-77.9391,39.587],[-77.936,39.5967],[-77.9359,39.6094],[-77.9448,39.6156],[-77.9411,39.619],[-77.9328,39.6176],[-77.9227,39.6047],[-77.892,39.5978],[-77.8812,39.601],[-77.8812,39.6064],[-77.887,39.6136],[-77.8849,39.6158],[-77.8639,39.6088],[-77.8374,39.6057],[-77.8322,39.6014],[-77.8297,39.5911],[-77.8361,39.5667],[-77.8785,39.5634],[-77.8869,39.56],[-77.8887,39.5554],[-77.8653,39.5384],[-77.8661,39.5184],[-77.8612,39.5143],[-77.8419,39.5184],[-77.8406,39.5291],[-77.837,39.5321],[-77.8247,39.5285],[-77.8258,39.5167],[-77.8466,39.5046],[-77.8454,39.4981],[-77.8029,39.4895],[-77.7916,39.491],[-77.7822,39.499],[-77.7663,39.4962],[-77.7673,39.4913],[-77.7972,39.4801],[-77.7954,39.4712],[-77.7776,39.4623],[-77.7806,39.4598],[-77.798,39.4608],[-77.7983,39.4561],[-77.7853,39.4454],[-77.8033,39.438],[-77.7943,39.4309],[-77.7637,39.4283],[-77.7542,39.4242],[-77.7384,39.399],[-77.7366,39.3871],[-77.753,39.3817],[-77.7435,39.36],[-77.7476,39.3513],[-77.7596,39.3448],[-77.7592,39.3369],[-77.7248,39.3214],[-77.693,39.3184],[-77.6755,39.3244],[-77.6509,39.3108],[-77.6159,39.3025],[-77.5926,39.3012],[-77.5671,39.3062],[-77.5618,39.3015],[-77.5607,39.286],[-77.5408,39.2653],[-77.5107,39.2533],[-77.4905,39.2491],[-77.4595,39.2277],[-77.4589,39.2201],[-77.4749,39.2063],[-77.4769,39.1915],[-77.4851,39.1863],[-77.5103,39.1793],[-77.5186,39.1677],[-77.5277,39.1447],[-77.5252,39.1293],[-77.5207,39.1214],[-77.4854,39.1093],[-77.4687,39.0894],[-77.4615,39.0754],[-77.3858,39.0621],[-77.3401,39.0629],[-77.3197,39.0534],[-77.3047,39.0514],[-77.275,39.0343],[-77.2466,39.025],[-77.2454,39.0175],[-77.2558,39.0017],[-77.245,38.9827],[-77.2352,38.9761],[-77.23,38.9797],[-77.2237,38.9721],[-77.1978,38.9667],[-77.1814,38.9688],[-77.1488,38.965],[-77.1198,38.9343],[-77.0409,38.9958],[-76.9094,38.8929],[-77.0405,38.7904],[-77.0433,38.7184],[-77.0535,38.7098],[-77.0714,38.71],[-77.0792,38.7131],[-77.08,38.7089],[-77.1226,38.6853],[-77.1324,38.6741],[-77.1364,38.6502],[-77.1297,38.6347],[-77.2037,38.6182],[-77.2464,38.5934],[-77.2565,38.5606],[-77.2761,38.5474],[-77.2763,38.5394],[-77.2873,38.5215],[-77.2853,38.5197],[-77.2897,38.5181],[-77.3031,38.4992],[-77.3096,38.4956],[-77.3185,38.4744],[-77.3221,38.4289],[-77.3104,38.4001],[-77.3049,38.3753],[-77.2968,38.3705],[-77.2882,38.3594],[-77.2884,38.3514],[-77.2838,38.3429],[-77.2653,38.3332],[-77.2471,38.3315],[-77.2047,38.3411],[-77.1793,38.3419],[-77.1584,38.3485],[-77.1382,38.3679],[-77.0842,38.3687],[-77.0706,38.3782],[-77.0534,38.3988],[-77.0415,38.4007],[-77.0115,38.3744],[-77.0159,38.371],[-77.0145,38.3326],[-77.0307,38.3116],[-77.0281,38.3053],[-77.0164,38.2988],[-77.0009,38.28],[-76.9909,38.2736],[-76.9813,38.2745],[-76.9621,38.257],[-76.9569,38.2375],[-76.9623,38.2299],[-76.949,38.2084],[-76.9368,38.2024],[-76.9111,38.1974],[-76.8767,38.173],[-76.8588,38.171],[-76.8394,38.1636],[-76.7999,38.1689],[-76.764,38.1678],[-76.6054,38.1489],[-76.6104,38.1485],[-76.6017,38.1251],[-76.6005,38.1131],[-76.5962,38.1067],[-76.5816,38.0959],[-76.5365,38.0749],[-76.5342,38.0635],[-76.5162,38.0449],[-76.5166,38.0268],[-76.492,38.0177],[-76.465,38.0132],[-76.4339,37.9818],[-76.4129,37.9663],[-76.3334,37.943],[-76.2618,37.9088],[-76.2479,37.8949],[-76.2366,37.8901],[-76.2365,37.8866],[-76.052,37.9536],[-75.9933,37.9535],[-75.9437,37.9461],[-75.9527,37.9068],[-75.8829,37.9113],[-75.8012,37.9122],[-75.7616,37.9414],[-75.7046,37.9547],[-75.6913,37.9555],[-75.6557,37.9454],[-75.6477,37.947],[-75.6482,37.9668],[-75.6382,37.9794],[-75.6295,37.976],[-75.6338,37.9845],[-75.6256,37.9898],[-75.6244,37.9942],[-75.2496,38.0267],[-75.1664,38.0278],[-75.1246,38.0939],[-75.0878,38.1894],[-75.0415,38.287],[-75.0313,38.2947],[-75.0208,38.3098],[-75.0191,38.3214],[-74.9996,38.3717],[-74.9863,38.4516],[-75.4109,38.4523],[-75.6937,38.4601],[-75.756,39.2461]]]},"properties":{"STUSAB":"MD","NAME":"Maryland","AREALAND":"25151306193","AREAWATER":"6979764136"}},
    {"type":"Feature","geometry":{"type":"Polygon","coordinates":[[[-67.8057,45.6801],[-67.818,45.6938],[-67.8029,45.6961],[-67.8096,45.7296],[-67.7818,45.7311],[-67.7929,45.7501],[-67.8063,45.7552],[-67.8093,45.7674],[-67.8055,45.7695],[-67.8039,45.7811],[-67.8065,45.7944],[-67.8021,45.803],[-67.7807,45.8178],[-67.7656,45.8185],[-67.7553,45.8234],[-67.7638,45.8288],[-67.7688,45.839],[-67.7873,45.8496],[-67.7971,45.86],[-67.7985,45.864],[-67.7962,45.8652],[-67.8045,45.8694],[-67.8039,45.8829],[-67.7875,45.8947],[-67.7681,45.8981],[-67.7695,45.9008],[-67.7653,45.9098],[-67.7554,45.9117],[-67.7506,45.9176],[-67.7586,45.9264],[-67.7662,45.928],[-67.7659,45.9305],[-67.7735,45.9348],[-67.7778,45.9342],[-67.7812,45.9434],[-67.7902,47.0672],[-67.8211,47.0834],[-67.8829,47.1044],[-67.8882,47.1098],[-67.8909,47.1266],[-67.9035,47.1365],[-67.9098,47.1472],[-67.9287,47.1562],[-67.9515,47.1835],[-67.9519,47.1945],[-67.9572,47.1996],[-67.9897,47.21],[-68.0197,47.2385],[-68.074,47.2592],[-68.0819,47.271],[-68.1359,47.2956],[-68.1522,47.3097],[-68.1547,47.3252],[-68.176,47.3289],[-68.2024,47.3394],[-68.2145,47.3396],[-68.2237,47.3447],[-68.2281,47.3534],[-68.2345,47.3553],[-68.2649,47.3522],[-68.2848,47.3603],[-68.3033,47.3552],[-68.3277,47.3601],[-68.3631,47.3547],[-68.3777,47.3436],[-68.3847,47.3241],[-68.3808,47.3082],[-68.3848,47.3037],[-68.3763,47.2952],[-68.3747,47.291],[-68.3779,47.2874],[-68.4098,47.288],[-68.4298,47.2813],[-68.4488,47.282],[-68.4585,47.2844],[-68.4656,47.2946],[-68.475,47.2971],[-68.4902,47.2939],[-68.5168,47.2961],[-68.5498,47.2821],[-68.5801,47.2871],[-68.5977,47.2702],[-68.5935,47.2588],[-68.6075,47.247],[-68.6175,47.2434],[-68.6598,47.2361],[-68.6872,47.2444],[-68.7051,47.2379],[-68.717,47.2405],[-68.7643,47.222],[-68.8115,47.2151],[-68.8574,47.1903],[-68.871,47.1891],[-68.8822,47.1829],[-68.8955,47.1824],[-68.9,47.1777],[-68.9084,47.1863],[-68.9198,47.1899],[-68.9199,47.1948],[-68.9237,47.1974],[-68.9284,47.1966],[-68.9411,47.2061],[-68.9508,47.202],[-68.9529,47.2069],[-68.9612,47.2057],[-68.9653,47.2125],[-68.9804,47.2201],[-69.0338,47.2404],[-69.0507,47.2565],[-69.0468,47.2716],[-69.0508,47.2785],[-69.0497,47.2893],[-69.0535,47.2972],[-69.0492,47.3058],[-69.0549,47.3153],[-69.0549,47.3777],[-69.05,47.3786],[-69.0475,47.3834],[-69.0396,47.3842],[-69.0454,47.393],[-69.0438,47.3974],[-69.0376,47.3968],[-69.0419,47.3982],[-69.0427,47.402],[-69.0352,47.4018],[-69.0425,47.4047],[-69.0324,47.4022],[-69.0306,47.4074],[-69.0366,47.4077],[-69.0345,47.4146],[-69.0422,47.4157],[-69.0392,47.4197],[-69.0432,47.4268],[-69.0474,47.4277],[-69.0465,47.4243],[-69.0522,47.4221],[-69.0485,47.4242],[-69.0521,47.43],[-69.0635,47.4341],[-69.0619,47.4306],[-69.0684,47.4274],[-69.0901,47.4241],[-69.0913,47.4268],[-69.0979,47.4269],[-69.0989,47.4314],[-69.1077,47.4277],[-69.1078,47.4354],[-69.122,47.4427],[-69.1236,47.4407],[-69.1393,47.4466],[-69.1411,47.444],[-69.1456,47.4486],[-69.1565,47.4516],[-69.1623,47.4474],[-69.1649,47.4515],[-69.1789,47.4574],[-69.2052,47.452],[-69.2245,47.4598],[-69.6129,47.079],[-69.9971,46.6955],[-70.0565,46.4156],[-70.0764,46.4095],[-70.0969,46.4095],[-70.0952,46.4064],[-70.1009,46.4053],[-70.0978,46.4042],[-70.1004,46.4032],[-70.0988,46.4011],[-70.1099,46.3903],[-70.1078,46.3877],[-70.1123,46.3881],[-70.1108,46.3861],[-70.1142,46.3852],[-70.1166,46.3882],[-70.1162,46.3859],[-70.127,46.3804],[-70.127,46.3708],[-70.1364,46.3699],[-70.1411,46.3625],[-70.1481,46.359],[-70.1564,46.3615],[-70.1666,46.3574],[-70.1729,46.3592],[-70.1817,46.3522],[-70.1912,46.3502],[-70.1957,46.3408],[-70.2089,46.3295],[-70.206,46.3247],[-70.2073,46.3196],[-70.203,46.3144],[-70.2061,46.3099],[-70.2059,46.2997],[-70.2316,46.291],[-70.2325,46.2847],[-70.2399,46.2791],[-70.2407,46.273],[-70.2487,46.2671],[-70.2531,46.2588],[-70.2547,46.2542],[-70.2509,46.2491],[-70.2592,46.2389],[-70.2604,46.2302],[-70.2673,46.225],[-70.2675,46.2194],[-70.2736,46.2168],[-70.2711,46.2108],[-70.2927,46.1915],[-70.2906,46.1851],[-70.2859,46.1846],[-70.2776,46.1746],[-70.2666,46.1693],[-70.2482,46.1518],[-70.2406,46.151],[-70.2363,46.1452],[-70.2545,46.1137],[-70.2531,46.1001],[-70.2725,46.1021],[-70.2859,46.0998],[-70.2842,46.0979],[-70.2897,46.0946],[-70.292,46.0868],[-70.3019,46.0824],[-70.3,46.0784],[-70.305,46.0718],[-70.3025,46.0704],[-70.311,46.0642],[-70.3004,46.0606],[-70.2842,46.0627],[-70.2789,46.0608],[-70.2783,46.0563],[-70.281,46.0506],[-70.2974,46.0407],[-70.3019,46.0333],[-70.2985,46.0309],[-70.3014,46.0276],[-70.318,46.0191],[-70.3061,46.0098],[-70.3024,45.9987],[-70.2919,45.9974],[-70.2886,45.994],[-70.2839,45.9955],[-70.2947,45.9862],[-70.307,45.9827],[-70.307,45.9783],[-70.3119,45.9745],[-70.3116,45.9664],[-70.3159,45.963],[-70.2834,45.9638],[-70.277,45.9673],[-70.2727,45.9644],[-70.2745,45.9614],[-70.2657,45.9642],[-70.258,45.959],[-70.2605,45.9523],[-70.2528,45.9554],[-70.2423,45.9466],[-70.2443,45.9447],[-70.2391,45.9439],[-70.2396,45.9396],[-70.2631,45.924],[-70.2624,45.92],[-70.2572,45.9176],[-70.2595,45.9098],[-70.2534,45.9074],[-70.2539,45.9025],[-70.2657,45.8937],[-70.2588,45.8912],[-70.2845,45.8717],[-70.3078,45.8588],[-70.3419,45.8523],[-70.3594,45.8354],[-70.3708,45.8352],[-70.3693,45.8312],[-70.3722,45.828],[-70.388,45.8188],[-70.3878,45.8144],[-70.3967,45.8081],[-70.3962,45.7987],[-70.4169,45.7955],[-70.4157,45.7853],[-70.4102,45.7842],[-70.4056,45.7765],[-70.407,45.7625],[-70.3884,45.7502],[-70.3945,45.7436],[-70.3939,45.7401],[-70.3838,45.7346],[-70.3901,45.7285],[-70.3965,45.7291],[-70.4003,45.7197],[-70.4292,45.7104],[-70.4254,45.7075],[-70.4392,45.7039],[-70.4655,45.7065],[-70.4761,45.6969],[-70.5108,45.6792],[-70.5199,45.6691],[-70.5264,45.6664],[-70.5339,45.671],[-70.5424,45.6665],[-70.5586,45.6665],[-70.5637,45.6627],[-70.5649,45.6548],[-70.5836,45.6424],[-70.5909,45.6305],[-70.607,45.6257],[-70.6191,45.612],[-70.6446,45.607],[-70.654,45.5928],[-70.6781,45.5705],[-70.6877,45.5694],[-70.6851,45.5666],[-70.6892,45.5622],[-70.6771,45.5522],[-70.687,45.5493],[-70.6965,45.54],[-70.7009,45.5325],[-70.6991,45.5301],[-70.7065,45.5279],[-70.7111,45.5195],[-70.7226,45.5137],[-70.7227,45.5065],[-70.7116,45.5018],[-70.7178,45.4902],[-70.7164,45.4865],[-70.6917,45.4743],[-70.6929,45.4664],[-70.6818,45.4617],[-70.6811,45.4522],[-70.6507,45.4449],[-70.6404,45.4308],[-70.6298,45.4263],[-70.6278,45.4207],[-70.6355,45.4149],[-70.6351,45.4111],[-70.6213,45.4027],[-70.6363,45.3952],[-70.6389,45.3888],[-70.6349,45.3834],[-70.6518,45.377],[-70.6608,45.3781],[-70.6617,45.3863],[-70.6782,45.3943],[-70.6962,45.3924],[-70.6995,45.3945],[-70.712,45.3905],[-70.7297,45.3991],[-70.7304,45.4044],[-70.7436,45.4119],[-70.744,45.4212],[-70.7546,45.4283],[-70.7644,45.4259],[-70.7814,45.4312],[-70.7876,45.4265],[-70.7981,45.4265],[-70.8025,45.4179],[-70.8113,45.4162],[-70.8259,45.3984],[-70.8239,45.391],[-70.8138,45.3878],[-70.8028,45.3675],[-70.8098,45.358],[-70.8145,45.3567],[-70.8098,45.3487],[-70.8199,45.3402],[-70.8164,45.3308],[-70.8076,45.3277],[-70.8084,45.3118],[-70.8146,45.3082],[-70.8115,45.3038],[-70.8163,45.2982],[-70.8355,45.294],[-70.8299,45.2902],[-70.8319,45.2789],[-70.8413,45.267],[-70.8489,45.2631],[-70.8496,45.2559],[-70.8465,45.253],[-70.8486,45.2452],[-70.8366,45.2373],[-70.8376,45.235],[-70.8575,45.2291],[-70.8847,45.2349],[-70.8969,45.2419],[-70.8951,45.2523],[-70.8985,45.2583],[-70.9059,45.2608],[-70.9075,45.2684],[-70.9213,45.2792],[-70.912,45.2963],[-70.9196,45.3053],[-70.9178,45.3117],[-70.9272,45.3149],[-70.93,45.3188],[-70.9389,45.32],[-70.9495,45.3313],[-70.9524,45.3391],[-70.9673,45.3322],[-70.985,45.3319],[-70.9908,45.3381],[-71.0107,45.3477],[-71.0121,45.3339],[-71.0019,45.3284],[-71.0085,45.3192],[-71.0271,45.3147],[-71.0327,45.3102],[-71.0591,45.3138],[-71.0839,45.3055],[-71.0772,45.25],[-71.0335,44.6976],[-71.0057,44.2027],[-70.989,43.7901],[-70.9728,43.5705],[-70.9667,43.5694],[-70.9628,43.5634],[-70.9573,43.5613],[-70.9549,43.554],[-70.9506,43.5513],[-70.9535,43.5406],[-70.9638,43.5394],[-70.9539,43.5223],[-70.9568,43.5128],[-70.9547,43.5093],[-70.958,43.508],[-70.9588,43.4994],[-70.9643,43.4971],[-70.9683,43.4895],[-70.9675,43.4809],[-70.976,43.4784],[-70.9611,43.4692],[-70.9666,43.4513],[-70.961,43.4384],[-70.9688,43.4346],[-70.9697,43.4269],[-70.9813,43.4209],[-70.9868,43.4138],[-70.9865,43.404],[-70.9823,43.3983],[-70.9879,43.3899],[-70.9857,43.3792],[-70.9746,43.3636],[-70.9782,43.3587],[-70.972,43.3546],[-70.9726,43.3484],[-70.9674,43.3492],[-70.968,43.3446],[-70.9595,43.341],[-70.9559,43.334],[-70.9312,43.3365],[-70.934,43.3354],[-70.9317,43.3309],[-70.9229,43.3262],[-70.9244,43.3238],[-70.9192,43.3244],[-70.9204,43.3212],[-70.9114,43.3197],[-70.9118,43.3157],[-70.9154,43.3154],[-70.9113,43.3104],[-70.9126,43.3076],[-70.907,43.3047],[-70.9037,43.3063],[-70.902,43.3014],[-70.8963,43.2986],[-70.9039,43.2968],[-70.9066,43.292],[-70.8964,43.2923],[-70.8993,43.2879],[-70.897,43.2855],[-70.8836,43.2834],[-70.8858,43.2808],[-70.8827,43.2789],[-70.8831,43.273],[-70.8743,43.2719],[-70.8701,43.2661],[-70.8629,43.2648],[-70.8575,43.2558],[-70.8428,43.2542],[-70.8379,43.2424],[-70.8274,43.2434],[-70.8178,43.2382],[-70.8155,43.2335],[-70.8172,43.2293],[-70.8098,43.2259],[-70.8169,43.2145],[-70.8207,43.1995],[-70.8193,43.193],[-70.8283,43.1878],[-70.8236,43.1742],[-70.8278,43.1704],[-70.8336,43.1461],[-70.8271,43.1274],[-70.7797,43.0962],[-70.7659,43.0925],[-70.7564,43.0802],[-70.743,43.078],[-70.738,43.0737],[-70.7063,43.0753],[-70.7012,43.0452],[-70.6307,42.9853],[-70.6112,42.979],[-70.5876,42.9492],[-70.5751,42.9171],[-70.57,42.9191],[-70.553,42.9293],[-70.5402,42.944],[-70.536,42.9562],[-70.5347,42.9885],[-70.5289,43.0058],[-70.5325,43.02],[-70.5521,43.043],[-70.5731,43.0529],[-70.5997,43.0569],[-70.5906,43.0674],[-70.5822,43.0955],[-70.562,43.1099],[-70.5558,43.1215],[-70.5401,43.1305],[-70.5374,43.1059],[-70.5251,43.0893],[-70.493,43.073],[-70.4591,43.0715],[-70.4398,43.0765],[-70.4211,43.0867],[-70.4062,43.1021],[-70.4032,43.1152],[-70.4072,43.1384],[-70.4196,43.1526],[-70.4409,43.1666],[-70.4649,43.1708],[-70.4864,43.1703],[-70.4995,43.1669],[-70.5217,43.1549],[-70.5229,43.1789],[-70.5197,43.191],[-70.5112,43.2012],[-70.5063,43.2188],[-70.5124,43.2427],[-70.5208,43.2521],[-70.5022,43.2681],[-70.4932,43.2868],[-70.4733,43.291],[-70.4553,43.2903],[-70.4218,43.2975],[-70.3967,43.3125],[-70.3674,43.3233],[-70.3516,43.3391],[-70.3462,43.3582],[-70.3189,43.3901],[-70.2804,43.4087],[-70.2684,43.4264],[-70.156,43.5244],[-69.8552,43.6469],[-69.8275,43.645],[-69.8088,43.6473],[-69.7866,43.6581],[-69.7495,43.654],[-69.7304,43.6573],[-69.7083,43.6682],[-69.6934,43.6834],[-69.6863,43.6982],[-69.6647,43.7117],[-69.644,43.7036],[-69.6173,43.6998],[-69.5967,43.7033],[-69.5666,43.7028],[-69.5509,43.7071],[-69.5353,43.7145],[-69.5191,43.7321],[-69.5142,43.7501],[-69.5158,43.761],[-69.5058,43.7785],[-69.4699,43.7939],[-69.4093,43.8108],[-69.3873,43.799],[-69.3953,43.7803],[-69.3972,43.7634],[-69.3876,43.7361],[-69.3564,43.7109],[-69.3351,43.7045],[-69.309,43.705],[-69.2829,43.7138],[-69.262,43.7254],[-69.2381,43.7501],[-69.2334,43.7623],[-69.2333,43.781],[-69.2425,43.7998],[-69.2623,43.8154],[-69.2366,43.8256],[-69.2266,43.8122],[-69.1972,43.796],[-69.171,43.7932],[-69.1498,43.7957],[-69.083,43.8256],[-69.0649,43.8419],[-69.0559,43.8589],[-69.0228,43.8425],[-69.0243,43.8198],[-69.0099,43.7984],[-68.9812,43.7838],[-68.9498,43.7802],[-68.9444,43.7679],[-68.9255,43.7501],[-68.8706,43.7336],[-68.8491,43.7324],[-68.8269,43.7357],[-68.8054,43.746],[-68.7861,43.7684],[-68.7812,43.7851],[-68.7853,43.8043],[-68.7495,43.8325],[-68.7128,43.8384],[-68.6847,43.8546],[-68.6694,43.8696],[-68.6638,43.8939],[-68.6687,43.9088],[-68.6793,43.9235],[-68.707,43.9392],[-68.7262,43.9434],[-68.7426,43.9431],[-68.7215,43.9619],[-68.7072,43.9638],[-68.6897,43.9542],[-68.6596,43.948],[-68.641,43.9494],[-68.6187,43.9559],[-68.5942,43.9537],[-68.5684,43.958],[-68.5473,43.9686],[-68.5307,43.9866],[-68.4931,44.0106],[-68.4874,44.0178],[-68.4849,44.0283],[-68.463,44.0321],[-68.4466,44.0426],[-68.4368,44.0532],[-68.3688,44.0452],[-68.3114,44.0534],[-68.2792,44.0699],[-68.2631,44.0906],[-68.2302,44.0905],[-68.2034,44.0996],[-68.1858,44.112],[-68.1759,44.1251],[-68.1684,44.1729],[-68.1708,44.1901],[-68.1565,44.1948],[-68.1376,44.2069],[-68.1226,44.226],[-68.1207,44.2443],[-68.1283,44.2643],[-68.061,44.2783],[-68.0278,44.2742],[-67.9994,44.2802],[-67.9736,44.2952],[-67.9656,44.306],[-67.9608,44.3193],[-67.9424,44.3261],[-67.9252,44.3414],[-67.8982,44.3221],[-67.8744,44.3169],[-67.8583,44.317],[-67.8237,44.327],[-67.8097,44.3365],[-67.8008,44.3475],[-67.7953,44.3612],[-67.796,44.3795],[-67.8056,44.391],[-67.799,44.3984],[-67.7747,44.4113],[-67.7586,44.3983],[-67.7417,44.3908],[-67.7153,44.3865],[-67.6958,44.3877],[-67.6746,44.3946],[-67.655,44.3867],[-67.6274,44.3835],[-67.5676,44.3972],[-67.4994,44.4275],[-67.473,44.4483],[-67.4669,44.4573],[-67.4552,44.4649],[-67.4442,44.4811],[-67.4413,44.5001],[-67.4434,44.5053],[-67.4139,44.5096],[-67.3882,44.5204],[-67.366,44.5178],[-67.3404,44.5213],[-67.3178,44.5315],[-67.3008,44.5499],[-67.2481,44.5549],[-67.2233,44.5632],[-67.1878,44.5818],[-67.1743,44.5947],[-67.1409,44.6083],[-67.1274,44.6214],[-67.1038,44.6334],[-67.0932,44.6431],[-67.0875,44.6535],[-67.0502,44.681],[-67.0393,44.697],[-67.024,44.7051],[-67.0108,44.7173],[-66.9775,44.7312],[-66.9523,44.7604],[-66.9026,44.7766],[-66.8854,44.7942],[-66.9326,44.8255],[-66.9653,44.8289],[-66.9749,44.8416],[-66.9748,44.851],[-66.9821,44.8673],[-66.9687,44.9104],[-66.9968,44.9284],[-67.0217,44.9539],[-67.0946,45.0745],[-67.1126,45.1126],[-67.1589,45.162],[-67.1909,45.1657],[-67.2051,45.1714],[-67.2273,45.1634],[-67.2428,45.1724],[-67.2474,45.1809],[-67.2692,45.1905],[-67.2834,45.1919],[-67.291,45.1876],[-67.294,45.1772],[-67.2914,45.171],[-67.2993,45.1692],[-67.3027,45.1607],[-67.3016,45.157],[-67.2942,45.1536],[-67.296,45.1478],[-67.32,45.1424],[-67.3177,45.138],[-67.3208,45.1313],[-67.3305,45.1318],[-67.3408,45.125],[-67.346,45.1265],[-67.3534,45.1292],[-67.3807,45.1521],[-67.405,45.1601],[-67.4048,45.1668],[-67.3992,45.169],[-67.4005,45.1777],[-67.4065,45.1789],[-67.4181,45.19],[-67.4293,45.1935],[-67.428,45.2018],[-67.4393,45.2261],[-67.4538,45.2412],[-67.4619,45.2427],[-67.4685,45.2507],[-67.4748,45.2633],[-67.4764,45.2754],[-67.482,45.2754],[-67.4835,45.2795],[-67.489,45.2806],[-67.4851,45.2912],[-67.4761,45.2886],[-67.4747,45.2917],[-67.4661,45.2939],[-67.4681,45.299],[-67.4603,45.3],[-67.4518,45.3177],[-67.4569,45.3253],[-67.4436,45.3309],[-67.4406,45.336],[-67.4312,45.3411],[-67.4289,45.3444],[-67.4315,45.3498],[-67.4254,45.3574],[-67.4336,45.3608],[-67.4345,45.365],[-67.4302,45.3716],[-67.4211,45.3736],[-67.4192,45.3771],[-67.4276,45.391],[-67.4527,45.4097],[-67.4612,45.4222],[-67.4741,45.4251],[-67.4804,45.4409],[-67.4765,45.4433],[-67.485,45.4528],[-67.4821,45.4594],[-67.4872,45.4677],[-67.5009,45.4789],[-67.5035,45.4896],[-67.4895,45.4892],[-67.4855,45.4956],[-67.4817,45.4938],[-67.4776,45.497],[-67.4675,45.4952],[-67.4637,45.4971],[-67.4705,45.4995],[-67.4711,45.5042],[-67.4636,45.5084],[-67.4497,45.4991],[-67.4535,45.5088],[-67.4501,45.5103],[-67.4301,45.501],[-67.4228,45.5055],[-67.4162,45.5013],[-67.4209,45.5118],[-67.4327,45.5198],[-67.4349,45.5281],[-67.4325,45.5404],[-67.4251,45.5403],[-67.4207,45.5497],[-67.4289,45.5683],[-67.4232,45.5716],[-67.4311,45.5841],[-67.4473,45.5966],[-67.45,45.6025],[-67.4567,45.6043],[-67.4685,45.6007],[-67.4772,45.6039],[-67.4933,45.6013],[-67.4941,45.5989],[-67.488,45.5958],[-67.499,45.5867],[-67.5192,45.5876],[-67.548,45.5978],[-67.5617,45.5947],[-67.5899,45.6068],[-67.6084,45.6061],[-67.6391,45.6251],[-67.644,45.6231],[-67.6398,45.6161],[-67.6456,45.6133],[-67.6752,45.6307],[-67.6923,45.6501],[-67.6913,45.6535],[-67.6979,45.6596],[-67.7096,45.6813],[-67.7178,45.6794],[-67.7283,45.6892],[-67.7346,45.6889],[-67.7335,45.684],[-67.73,45.6767],[-67.7179,45.6677],[-67.7201,45.6623],[-67.7325,45.6634],[-67.7444,45.6729],[-67.7543,45.6676],[-67.7687,45.6775],[-67.8036,45.6777],[-67.8057,45.6801]]]},"properties":{"STUSAB":"ME","NAME":"Maine","AREALAND":"79888538922","AREAWATER":"11744922685"}},
    {"type":"Feature","geometry":{"type":"Polygon","coordinates":[[[-70.8389,43.2445],[-70.8428,43.2542],[-70.8575,43.2558],[-70.8629,43.2648],[-70.8701,43.2661],[-70.8743,43.2719],[-70.8833,43.2732],[-70.8827,43.2789],[-70.8858,43.2808],[-70.8836,43.2834],[-70.8967,43.2853],[-70.8993,43.2879],[-70.8973,43.2927],[-70.9066,43.292],[-70.9039,43.2968],[-70.8963,43.2986],[-70.902,43.3014],[-70.9037,43.3063],[-70.907,43.3047],[-70.9126,43.3076],[-70.9113,43.3104],[-70.9154,43.3154],[-70.9118,43.3157],[-70.9114,43.3197],[-70.9204,43.3212],[-70.9192,43.3244],[-70.9244,43.3238],[-70.9229,43.3262],[-70.9317,43.3309],[-70.934,43.3354],[-70.9312,43.3365],[-70.9559,43.334],[-70.9595,43.341],[-70.968,43.3446],[-70.9674,43.3492],[-70.973,43.3488],[-70.972,43.3546],[-70.9782,43.3587],[-70.9746,43.3636],[-70.9857,43.3792],[-70.9879,43.3899],[-70.9823,43.3983],[-70.9865,43.404],[-70.9868,43.4138],[-70.9813,43.4209],[-70.9697,43.4269],[-70.9688,43.4346],[-70.961,43.4384],[-70.9666,43.4513],[-70.9611,43.4692],[-70.976,43.4784],[-70.9675,43.4809],[-70.9683,43.4895],[-70.9643,43.4971],[-70.9588,43.4994],[-70.958,43.508],[-70.9547,43.5093],[-70.9568,43.5128],[-70.9539,43.5223],[-70.9638,43.5394],[-70.9535,43.5406],[-70.9506,43.5513],[-70.9549,43.554],[-70.9573,43.5613],[-70.9628,43.5634],[-70.9667,43.5694],[-70.9728,43.5705],[-70.989,43.7901],[-71.0057,44.2027],[-71.0335,44.6976],[-71.0772,45.25],[-71.0839,45.3055],[-71.0982,45.3017],[-71.1053,45.2949],[-71.1042,45.2915],[-71.111,45.2844],[-71.1054,45.2828],[-71.1064,45.28],[-71.1163,45.2741],[-71.1241,45.2551],[-71.1279,45.2537],[-71.1329,45.2445],[-71.1476,45.2394],[-71.1486,45.2429],[-71.1623,45.2503],[-71.1732,45.2463],[-71.1801,45.2399],[-71.1964,45.2541],[-71.2127,45.2501],[-71.2206,45.2507],[-71.2221,45.2534],[-71.2306,45.2494],[-71.2356,45.2609],[-71.2456,45.2688],[-71.2594,45.272],[-71.263,45.2774],[-71.2649,45.2938],[-71.2727,45.2966],[-71.2805,45.2946],[-71.2842,45.3024],[-71.3005,45.2966],[-71.3076,45.2875],[-71.3308,45.2803],[-71.3364,45.2727],[-71.3535,45.2686],[-71.3603,45.2703],[-71.3632,45.2667],[-71.3565,45.2539],[-71.3628,45.2483],[-71.3783,45.2435],[-71.3841,45.2335],[-71.4021,45.2426],[-71.4211,45.2322],[-71.4342,45.2384],[-71.4428,45.2383],[-71.4435,45.2348],[-71.4207,45.2238],[-71.4158,45.2184],[-71.4031,45.2153],[-71.3973,45.2035],[-71.4059,45.1977],[-71.4042,45.195],[-71.4069,45.1899],[-71.4144,45.1848],[-71.4185,45.1705],[-71.4249,45.1658],[-71.4235,45.1607],[-71.4264,45.1527],[-71.4376,45.1419],[-71.4261,45.1295],[-71.4284,45.1237],[-71.4403,45.1137],[-71.4488,45.1126],[-71.4493,45.1045],[-71.4585,45.0988],[-71.4583,45.0952],[-71.4644,45.0934],[-71.4679,45.0837],[-71.4781,45.0843],[-71.4826,45.079],[-71.4873,45.0787],[-71.4878,45.0714],[-71.498,45.0702],[-71.4957,45.0648],[-71.4971,45.0601],[-71.5013,45.0587],[-71.4972,45.0558],[-71.5064,45.0485],[-71.5032,45.0481],[-71.5031,45.0452],[-71.4933,45.0458],[-71.491,45.0432],[-71.4925,45.0335],[-71.5001,45.0261],[-71.4971,45.0236],[-71.5002,45.0235],[-71.5011,45.0133],[-71.4651,45.0129],[-71.4763,45.0094],[-71.4806,45.0023],[-71.4883,45.0007],[-71.5088,45.0078],[-71.5304,44.9994],[-71.5372,44.9933],[-71.5331,44.9909],[-71.5384,44.9897],[-71.5415,44.9848],[-71.5368,44.9839],[-71.5372,44.9807],[-71.5222,44.9695],[-71.5229,44.9662],[-71.518,44.9677],[-71.5237,44.9643],[-71.5163,44.9645],[-71.5159,44.9528],[-71.5192,44.9496],[-71.5148,44.9437],[-71.5171,44.9391],[-71.5228,44.9399],[-71.5162,44.9352],[-71.5132,44.9292],[-71.5157,44.9272],[-71.5044,44.9192],[-71.4999,44.9112],[-71.4932,44.9114],[-71.496,44.9089],[-71.4949,44.9043],[-71.5005,44.9047],[-71.5074,44.8995],[-71.5139,44.8943],[-71.5107,44.8904],[-71.5161,44.8845],[-71.5284,44.8777],[-71.5329,44.8702],[-71.5495,44.8621],[-71.5475,44.8554],[-71.5558,44.8486],[-71.5511,44.837],[-71.5573,44.8339],[-71.5618,44.8236],[-71.5732,44.8208],[-71.5769,44.8152],[-71.5684,44.807],[-71.5728,44.7992],[-71.5728,44.7909],[-71.5792,44.7849],[-71.5925,44.7827],[-71.5951,44.7754],[-71.6114,44.7653],[-71.6167,44.7563],[-71.632,44.7521],[-71.6251,44.7434],[-71.6261,44.7285],[-71.6171,44.7287],[-71.6186,44.7222],[-71.5994,44.7053],[-71.6008,44.699],[-71.5939,44.6964],[-71.5979,44.6922],[-71.594,44.6834],[-71.5966,44.6781],[-71.5815,44.6732],[-71.5879,44.6699],[-71.5849,44.6641],[-71.5874,44.6597],[-71.5827,44.6559],[-71.5752,44.6558],[-71.5753,44.6531],[-71.5801,44.6521],[-71.5771,44.6507],[-71.5628,44.6524],[-71.5578,44.642],[-71.5637,44.6372],[-71.5538,44.6304],[-71.5468,44.6298],[-71.5521,44.6273],[-71.557,44.6295],[-71.5463,44.623],[-71.5551,44.6252],[-71.5536,44.6061],[-71.5621,44.6012],[-71.5509,44.601],[-71.5552,44.5933],[-71.546,44.5971],[-71.5469,44.5908],[-71.5385,44.5942],[-71.5401,44.5885],[-71.5349,44.5879],[-71.5458,44.5779],[-71.5497,44.5783],[-71.5524,44.5844],[-71.5548,44.5794],[-71.5477,44.5714],[-71.5577,44.5704],[-71.5597,44.564],[-71.5896,44.5657],[-71.597,44.5595],[-71.5986,44.5548],[-71.5719,44.5379],[-71.5807,44.5246],[-71.5941,44.5216],[-71.577,44.5021],[-71.5829,44.5022],[-71.5881,44.5066],[-71.5859,44.4994],[-71.5939,44.501],[-71.5986,44.4868],[-71.6095,44.4842],[-71.6178,44.4858],[-71.6262,44.4745],[-71.6345,44.4756],[-71.6342,44.4788],[-71.6247,44.4817],[-71.6328,44.4838],[-71.6468,44.4732],[-71.647,44.4699],[-71.639,44.4644],[-71.6443,44.4603],[-71.6542,44.4588],[-71.6609,44.4399],[-71.678,44.4353],[-71.677,44.4268],[-71.6827,44.4273],[-71.6843,44.4236],[-71.7026,44.4135],[-71.7143,44.4095],[-71.7354,44.41],[-71.7437,44.401],[-71.762,44.407],[-71.7784,44.3998],[-71.7945,44.399],[-71.8035,44.3919],[-71.8006,44.384],[-71.8144,44.3819],[-71.8157,44.375],[-71.8123,44.3716],[-71.8163,44.3674],[-71.8124,44.3573],[-71.8147,44.3545],[-71.8715,44.3367],[-71.9106,44.3484],[-71.934,44.336],[-71.9814,44.3374],[-71.9881,44.3301],[-72.0091,44.3222],[-72.0193,44.3202],[-72.0293,44.3223],[-72.0336,44.3181],[-72.0314,44.3152],[-72.0329,44.3022],[-72.0586,44.2865],[-72.0679,44.2734],[-72.0669,44.2681],[-72.0583,44.2701],[-72.0615,44.2611],[-72.0477,44.239],[-72.0536,44.2253],[-72.0526,44.2178],[-72.0595,44.2106],[-72.0587,44.202],[-72.0643,44.1976],[-72.0662,44.1901],[-72.0583,44.1813],[-72.0518,44.1665],[-72.0472,44.1616],[-72.0423,44.162],[-72.0431,44.1566],[-72.039,44.1568],[-72.0428,44.151],[-72.042,44.137],[-72.0333,44.1317],[-72.0373,44.1249],[-72.0451,44.1247],[-72.0531,44.1195],[-72.0554,44.1108],[-72.0521,44.1002],[-72.0479,44.0966],[-72.0439,44.0966],[-72.0395,44.1035],[-72.0313,44.1004],[-72.0333,44.0905],[-72.0453,44.0873],[-72.0317,44.079],[-72.0529,44.0763],[-72.0483,44.0697],[-72.0573,44.0583],[-72.0681,44.0574],[-72.0689,44.0543],[-72.0619,44.0496],[-72.0783,44.0434],[-72.0748,44.0324],[-72.0813,44.0284],[-72.0827,44.0218],[-72.0915,44.0244],[-72.0954,44.0218],[-72.0905,44.0099],[-72.0935,44.0094],[-72.0969,44.015],[-72.1028,44.0146],[-72.1058,44.0123],[-72.1041,44.0024],[-72.1169,43.9945],[-72.112,43.986],[-72.1144,43.9681],[-72.106,43.97],[-72.0909,43.9658],[-72.1007,43.963],[-72.099,43.9576],[-72.1057,43.9498],[-72.1183,43.9465],[-72.1169,43.9338],[-72.1205,43.9196],[-72.1505,43.9021],[-72.1597,43.8877],[-72.1721,43.885],[-72.1736,43.8796],[-72.1679,43.8691],[-72.1846,43.8641],[-72.188,43.8552],[-72.1831,43.8447],[-72.1824,43.8341],[-72.1889,43.8212],[-72.1841,43.8064],[-72.1962,43.7909],[-72.2055,43.7846],[-72.2052,43.7709],[-72.2185,43.7655],[-72.2342,43.746],[-72.2645,43.7339],[-72.2711,43.7339],[-72.2996,43.7063],[-72.3051,43.6953],[-72.306,43.6834],[-72.3014,43.6758],[-72.3031,43.6686],[-72.3136,43.6569],[-72.3147,43.6419],[-72.3291,43.6355],[-72.3274,43.6307],[-72.3348,43.618],[-72.3332,43.6103],[-72.3284,43.6071],[-72.3283,43.6011],[-72.3496,43.5878],[-72.3725,43.58],[-72.3802,43.5734],[-72.3801,43.565],[-72.383,43.5634],[-72.3807,43.5404],[-72.3877,43.5296],[-72.3943,43.5274],[-72.3989,43.5127],[-72.3811,43.494],[-72.3815,43.48],[-72.3926,43.4669],[-72.3904,43.4509],[-72.3958,43.4375],[-72.4035,43.3916],[-72.4134,43.3835],[-72.416,43.3772],[-72.4126,43.3623],[-72.4031,43.3577],[-72.3899,43.3566],[-72.4106,43.3311],[-72.3953,43.3127],[-72.4028,43.3024],[-72.4089,43.282],[-72.416,43.2702],[-72.4216,43.2634],[-72.4355,43.2577],[-72.4386,43.2524],[-72.4395,43.2441],[-72.4342,43.2319],[-72.441,43.2182],[-72.4382,43.2029],[-72.4505,43.1926],[-72.4439,43.1798],[-72.4528,43.1728],[-72.4521,43.1532],[-72.4574,43.1475],[-72.4521,43.1386],[-72.4408,43.1366],[-72.4423,43.1293],[-72.4325,43.1189],[-72.4335,43.1106],[-72.4432,43.103],[-72.4345,43.0866],[-72.4353,43.0815],[-72.4678,43.0527],[-72.4604,43.0414],[-72.4626,43.0258],[-72.4581,43.0183],[-72.4433,43.0076],[-72.4494,43.0003],[-72.4587,43.0009],[-72.4625,42.9974],[-72.4654,42.9896],[-72.4617,42.9829],[-72.4737,42.9721],[-72.4816,42.974],[-72.4922,42.9677],[-72.5184,42.9631],[-72.5338,42.9526],[-72.5342,42.9488],[-72.5269,42.9414],[-72.5245,42.9151],[-72.5304,42.9111],[-72.5334,42.8953],[-72.5526,42.885],[-72.5571,42.8529],[-72.5474,42.8395],[-72.5415,42.8071],[-72.5087,42.7795],[-72.5093,42.775],[-72.5165,42.7691],[-72.5155,42.7656],[-72.5084,42.7644],[-72.4996,42.7688],[-72.4977,42.7734],[-72.4905,42.7727],[-72.477,42.7608],[-72.4734,42.7462],[-72.4584,42.7269],[-71.2946,42.697],[-71.2679,42.726],[-71.2454,42.7425],[-71.2238,42.7465],[-71.1818,42.7373],[-71.1861,42.7909],[-71.1666,42.8089],[-71.1328,42.8215],[-71.0644,42.8063],[-71.0449,42.8487],[-71.0312,42.8591],[-70.967,42.8688],[-70.9296,42.885],[-70.9146,42.8866],[-70.8856,42.8828],[-70.8477,42.8609],[-70.8202,42.8718],[-70.735,42.8747],[-70.7273,42.8936],[-70.726,42.9285],[-70.709,42.9381],[-70.6944,42.9568],[-70.6809,42.9369],[-70.6551,42.9221],[-70.6107,42.9125],[-70.5751,42.9171],[-70.5876,42.9492],[-70.6112,42.979],[-70.6307,42.9853],[-70.7012,43.0452],[-70.7063,43.0753],[-70.738,43.0737],[-70.743,43.078],[-70.7564,43.0802],[-70.7659,43.0925],[-70.7797,43.0962],[-70.8271,43.1274],[-70.8336,43.1461],[-70.8278,43.1704],[-70.8236,43.1742],[-70.8283,43.1878],[-70.8193,43.193],[-70.8207,43.1995],[-70.8169,43.2145],[-70.8095,43.2252],[-70.8172,43.2293],[-70.8155,43.2335],[-70.8178,43.2382],[-70.8272,43.2433],[-70.8374,43.2423],[-70.8389,43.2445]]]},"properties":{"STUSAB":"NH","NAME":"New Hampshire","AREALAND":"23190733538","AREAWATER":"1025365173"}},
    {"type":"Feature","geometry":{"type":"Polygon","coordinates":[[[-74.4649,39.2982],[-74.4306,39.3084],[-74.3922,39.3123],[-74.3688,39.3207],[-74.3547,39.3354],[-74.35,39.3458],[-74.3254,39.3623],[-74.2873,39.3983],[-74.2659,39.4224],[-74.2496,39.4526],[-74.1832,39.533],[-74.0965,39.6499],[-74.0495,39.7238],[-74.0382,39.7501],[-74.0305,39.7867],[-74.0199,39.8751],[-73.9996,39.9768],[-73.9733,40.0751],[-73.9661,40.0906],[-73.9653,40.113],[-73.9069,40.2501],[-73.8982,40.2744],[-73.8908,40.3107],[-73.8871,40.345],[-73.8851,40.4528],[-73.8884,40.484],[-73.9021,40.4921],[-73.9779,40.5191],[-74.2253,40.4766],[-74.253,40.4867],[-74.2588,40.4989],[-74.2581,40.5087],[-74.2541,40.5157],[-74.246,40.521],[-74.2503,40.5423],[-74.2475,40.5494],[-74.2314,40.5592],[-74.218,40.5571],[-74.2146,40.5605],[-74.2072,40.5879],[-74.1996,40.5978],[-74.2048,40.6061],[-74.2024,40.6316],[-74.1914,40.642],[-74.1816,40.6465],[-74.126,40.6422],[-74.087,40.6515],[-74.0557,40.6515],[-74.0264,40.7001],[-74.014,40.7576],[-73.9636,40.8266],[-73.9528,40.8511],[-73.9298,40.8887],[-73.8961,40.9819],[-73.8936,40.9972],[-73.9027,40.9973],[-74.3307,41.1855],[-74.4579,41.2484],[-74.6956,41.3576],[-74.726,41.3462],[-74.7543,41.3462],[-74.7673,41.3277],[-74.7956,41.3203],[-74.7922,41.3108],[-74.83,41.2874],[-74.8461,41.2634],[-74.8471,41.2528],[-74.8564,41.2497],[-74.8611,41.2436],[-74.8676,41.2286],[-74.8595,41.2188],[-74.8834,41.1796],[-74.8999,41.1663],[-74.9053,41.1557],[-74.9238,41.138],[-74.9445,41.13],[-74.9474,41.1237],[-74.9632,41.1147],[-74.982,41.1085],[-74.9918,41.0891],[-74.9833,41.089],[-74.9694,41.0961],[-74.9668,41.0934],[-74.9691,41.0868],[-75.0124,41.0673],[-75.0176,41.0559],[-75.0271,41.0453],[-75.0271,41.0395],[-75.0705,41.0186],[-75.0845,41.0159],[-75.1311,40.9905],[-75.1347,40.972],[-75.1202,40.9687],[-75.1178,40.953],[-75.0955,40.9241],[-75.0793,40.9139],[-75.0753,40.8942],[-75.0537,40.8737],[-75.051,40.8657],[-75.0638,40.8556],[-75.066,40.8476],[-75.0767,40.8499],[-75.0958,40.8471],[-75.097,40.8393],[-75.0855,40.8301],[-75.0839,40.8245],[-75.1002,40.8077],[-75.1008,40.7998],[-75.1085,40.7911],[-75.1231,40.7867],[-75.1344,40.7738],[-75.1716,40.7777],[-75.179,40.7619],[-75.1965,40.7516],[-75.1953,40.7455],[-75.1821,40.7315],[-75.1867,40.7195],[-75.1944,40.714],[-75.2039,40.6915],[-75.1969,40.6813],[-75.1806,40.6794],[-75.1768,40.6757],[-75.1828,40.666],[-75.1909,40.6619],[-75.2005,40.6492],[-75.1907,40.6359],[-75.1886,40.6246],[-75.1907,40.62],[-75.2018,40.6172],[-75.1923,40.6027],[-75.1894,40.591],[-75.1952,40.5803],[-75.1941,40.5761],[-75.1849,40.5683],[-75.1705,40.5642],[-75.159,40.5648],[-75.1402,40.5754],[-75.1155,40.5729],[-75.0998,40.5674],[-75.0681,40.5415],[-75.0627,40.4804],[-75.0677,40.4737],[-75.067,40.4653],[-75.0707,40.4568],[-75.0586,40.4182],[-75.0286,40.404],[-74.9959,40.4104],[-74.9666,40.3982],[-74.9489,40.3651],[-74.9445,40.3451],[-74.9397,40.338],[-74.9083,40.3169],[-74.8916,40.313],[-74.8682,40.2952],[-74.8423,40.2505],[-74.7953,40.2294],[-74.7714,40.2152],[-74.7543,40.1852],[-74.7372,40.1776],[-74.7223,40.1607],[-74.7226,40.1491],[-74.7412,40.1352],[-74.7597,40.1338],[-74.7842,40.1205],[-74.8225,40.1268],[-74.8294,40.1192],[-74.8359,40.1035],[-74.8546,40.0933],[-74.8618,40.0835],[-74.9073,40.0708],[-74.9241,40.0712],[-74.9389,40.0661],[-74.9806,40.0459],[-75.0149,40.0199],[-75.048,40.0097],[-75.0626,39.9882],[-75.0732,39.9796],[-75.1051,39.9716],[-75.1291,39.9607],[-75.1363,39.9458],[-75.1294,39.9066],[-75.1359,39.8913],[-75.1423,39.8852],[-75.1877,39.8805],[-75.2214,39.8615],[-75.2461,39.854],[-75.2722,39.8491],[-75.3232,39.8498],[-75.3418,39.8461],[-75.415,39.802],[-75.4054,39.7964],[-75.4383,39.7844],[-75.4507,39.7751],[-75.4523,39.769],[-75.4639,39.7608],[-75.468,39.7458],[-75.4757,39.7337],[-75.4764,39.7162],[-75.4794,39.7137],[-75.4884,39.7147],[-75.4963,39.701],[-75.5099,39.6939],[-75.5104,39.6779],[-75.5155,39.6663],[-75.5335,39.6476],[-75.542,39.6454],[-75.5588,39.63],[-75.5574,39.6091],[-75.5535,39.6018],[-75.5375,39.5936],[-75.5277,39.5841],[-75.5147,39.5809],[-75.512,39.5673],[-75.5191,39.5554],[-75.534,39.5407],[-75.5268,39.5314],[-75.5301,39.5054],[-75.527,39.4992],[-75.5591,39.4958],[-75.5636,39.483],[-75.5605,39.4556],[-75.4814,39.3876],[-75.4694,39.3731],[-75.321,39.2514],[-75.249,39.1589],[-75.1917,39.079],[-75.1685,39.0562],[-75.0151,38.7887],[-74.908,38.8793],[-74.8722,38.8878],[-74.8408,38.8901],[-74.8243,38.8963],[-74.8094,38.907],[-74.8007,38.9206],[-74.7739,38.9428],[-74.7496,38.9541],[-74.7334,38.9677],[-74.7284,38.9742],[-74.7156,39.0092],[-74.6822,39.0498],[-74.6616,39.0613],[-74.6469,39.0762],[-74.6399,39.0947],[-74.6443,39.1148],[-74.6246,39.1436],[-74.6036,39.1629],[-74.5953,39.1778],[-74.5837,39.1872],[-74.5652,39.2106],[-74.524,39.2403],[-74.5085,39.261],[-74.4649,39.2982]],[[-74.0472,40.6908],[-74.0439,40.6902],[-74.0436,40.6888],[-74.0472,40.6908]],[[-74.0407,40.7001],[-74.0384,40.6987],[-74.0399,40.6986],[-74.0407,40.7001]]]},"properties":{"STUSAB":"NJ","NAME":"New Jersey","AREALAND":"19049444606","AREAWATER":"3533159776"}},
    {"type":"Feature","geometry":{"type":"MultiPolygon","coordinates":[[[[-74.7262,44.9949],[-74.7313,44.9904],[-74.7446,44.9906],[-74.7602,44.9949],[-74.7634,45.0056],[-74.7931,45.0046],[-74.8016,45.0146],[-74.8172,45.0117],[-74.8266,45.0159],[-74.8626,45.0046],[-74.8666,45.0005],[-74.8878,45.0],[-74.9007,44.9928],[-74.9079,44.9834],[-74.9725,44.9834],[-74.9928,44.9774],[-74.9993,44.9716],[-74.9993,44.9661],[-75.0052,44.9584],[-75.0271,44.9466],[-75.06,44.9346],[-75.0648,44.9294],[-75.0967,44.9271],[-75.1051,44.9195],[-75.1176,44.9213],[-75.1337,44.9154],[-75.14,44.8969],[-75.165,44.8935],[-75.2029,44.8778],[-75.2184,44.8778],[-75.2282,44.8683],[-75.241,44.8672],[-75.2561,44.8573],[-75.2904,44.8456],[-75.3076,44.8368],[-75.3019,44.8265],[-75.3337,44.8064],[-75.3445,44.8091],[-75.3698,44.7881],[-75.37,44.7829],[-75.3879,44.7796],[-75.3965,44.7735],[-75.4137,44.7722],[-75.4237,44.7561],[-75.4761,44.7208],[-75.5049,44.7054],[-75.62,44.6187],[-75.6624,44.5919],[-75.7669,44.5153],[-75.8076,44.4717],[-75.8214,44.432],[-75.9128,44.3678],[-75.9217,44.3688],[-75.9295,44.3593],[-75.9702,44.3425],[-75.9819,44.3475],[-76.0011,44.3479],[-76.0455,44.3318],[-76.097,44.2997],[-76.1182,44.2949],[-76.1312,44.2964],[-76.1618,44.2808],[-76.1643,44.2396],[-76.1913,44.2212],[-76.2068,44.2145],[-76.2455,44.2037],[-76.2865,44.2038],[-76.3126,44.199],[-76.3527,44.1347],[-76.4383,44.0942],[-76.4989,44.0001],[-76.7535,43.6843],[-76.7762,43.6295],[-78.1247,43.6312],[-78.6883,43.6347],[-78.7498,43.6093],[-79.2009,43.4504],[-79.0705,43.2625],[-79.0559,43.2547],[-79.053,43.2235],[-79.0566,43.2103],[-79.0487,43.2002],[-79.0533,43.1739],[-79.0466,43.1624],[-79.0423,43.1437],[-79.0437,43.1384],[-79.0541,43.1294],[-79.0696,43.1203],[-79.0601,43.1139],[-79.058,43.107],[-79.066,43.0911],[-79.0754,43.0814],[-79.0745,43.0779],[-79.0071,43.0658],[-78.9994,43.0561],[-79.0117,43.029],[-79.0233,43.0164],[-79.02,42.9948],[-79.0116,42.9853],[-78.9751,42.9688],[-78.9618,42.9578],[-78.9324,42.9559],[-78.9189,42.9469],[-78.9057,42.9234],[-78.9058,42.9],[-78.9306,42.8501],[-78.9998,42.8044],[-79.7624,42.5161],[-79.762,41.9988],[-78.1215,42.0004],[-77.8284,41.9983],[-76.829,42.002],[-76.3448,41.9984],[-75.3596,41.9996],[-75.3406,41.9924],[-75.3375,41.9846],[-75.3421,41.9727],[-75.328,41.9679],[-75.3196,41.9603],[-75.3178,41.9537],[-75.3026,41.948],[-75.3008,41.9536],[-75.2933,41.9543],[-75.2895,41.9432],[-75.2788,41.9387],[-75.2766,41.9222],[-75.2673,41.9061],[-75.273,41.8966],[-75.2717,41.8884],[-75.2596,41.8823],[-75.2575,41.8761],[-75.2643,41.8695],[-75.2583,41.8623],[-75.25,41.8622],[-75.2411,41.8673],[-75.2245,41.8576],[-75.215,41.8673],[-75.2046,41.8699],[-75.1954,41.8678],[-75.1854,41.8601],[-75.178,41.8709],[-75.1725,41.8723],[-75.1684,41.8693],[-75.1683,41.8587],[-75.1629,41.8506],[-75.1547,41.8485],[-75.1406,41.8522],[-75.131,41.8453],[-75.1166,41.8454],[-75.1134,41.8421],[-75.113,41.8226],[-75.0899,41.8117],[-75.0722,41.8141],[-75.0757,41.7996],[-75.0929,41.7965],[-75.1017,41.7875],[-75.1047,41.7744],[-75.1019,41.7696],[-75.0946,41.7684],[-75.0746,41.7713],[-75.0612,41.7648],[-75.053,41.7518],[-75.0548,41.7349],[-75.0497,41.7134],[-75.0662,41.7128],[-75.069,41.7093],[-75.0526,41.6881],[-75.0513,41.68],[-75.0595,41.6723],[-75.0495,41.6603],[-75.0486,41.633],[-75.0436,41.6233],[-75.0442,41.6181],[-75.0467,41.6156],[-75.0597,41.6176],[-75.0597,41.6104],[-75.0697,41.6101],[-75.0747,41.6065],[-75.06,41.5908],[-75.0472,41.5837],[-75.0405,41.5697],[-75.0281,41.5643],[-75.0188,41.5524],[-75.016,41.5442],[-75.0247,41.5401],[-75.0245,41.5346],[-75.0032,41.5235],[-75.0007,41.5186],[-75.0036,41.5083],[-74.988,41.5089],[-74.9842,41.5065],[-74.9823,41.4987],[-74.9856,41.4859],[-74.9825,41.4803],[-74.9574,41.4766],[-74.9434,41.4837],[-74.913,41.476],[-74.9092,41.4724],[-74.9066,41.4609],[-74.8902,41.4556],[-74.8892,41.4511],[-74.8964,41.4422],[-74.8926,41.4386],[-74.8577,41.4442],[-74.832,41.4304],[-74.8263,41.4316],[-74.818,41.4405],[-74.8082,41.4429],[-74.8011,41.4383],[-74.7951,41.4237],[-74.7891,41.4214],[-74.7727,41.4263],[-74.7586,41.4233],[-74.7387,41.4308],[-74.7347,41.423],[-74.7414,41.4057],[-74.7346,41.3974],[-74.7164,41.393],[-74.708,41.3787],[-74.6914,41.3674],[-74.6898,41.3617],[-74.6956,41.3576],[-74.4579,41.2484],[-74.3307,41.1855],[-73.9027,40.9973],[-73.8936,40.9972],[-73.8961,40.9819],[-73.9298,40.8887],[-73.9528,40.8511],[-73.9636,40.8266],[-74.014,40.7576],[-74.0264,40.7001],[-74.0557,40.6515],[-74.087,40.6515],[-74.126,40.6422],[-74.1856,40.646],[-74.2024,40.6316],[-74.2048,40.6061],[-74.1996,40.5978],[-74.2072,40.5879],[-74.2146,40.5605],[-74.218,40.5571],[-74.2314,40.5592],[-74.2475,40.5494],[-74.2503,40.5423],[-74.246,40.521],[-74.2541,40.5157],[-74.2581,40.5087],[-74.2588,40.4989],[-74.253,40.4867],[-74.2253,40.4766],[-73.9779,40.5191],[-73.8896,40.4865],[-73.8768,40.5011],[-73.8548,40.512],[-73.8262,40.5229],[-73.784,40.5324],[-73.6246,40.5345],[-73.4865,40.5205],[-73.3263,40.5569],[-73.274,40.5513],[-73.2496,40.5626],[-73.1246,40.5984],[-73.014,40.6251],[-72.8745,40.675],[-72.8286,40.6869],[-72.7495,40.7134],[-72.6245,40.7456],[-72.3745,40.8186],[-71.9317,40.9825],[-71.8701,40.997],[-71.8371,41.0109],[-71.7941,41.037],[-71.7775,41.0673],[-71.7819,41.0962],[-71.7906,41.1018],[-71.791,41.1841],[-71.9073,41.3045],[-71.9295,41.3104],[-72.0192,41.2906],[-72.0818,41.2622],[-72.9995,41.0871],[-73.2496,41.0259],[-73.6129,40.9509],[-73.6597,40.9879],[-73.6572,40.9909],[-73.6603,41.0005],[-73.6553,41.0122],[-73.7278,41.1007],[-73.4827,41.2128],[-73.551,41.2954],[-73.4896,42.0001],[-73.4873,42.0495],[-73.497,42.0496],[-73.5082,42.0861],[-73.2648,42.7459],[-73.2764,42.746],[-73.2909,42.8019],[-73.2837,42.8139],[-73.2871,42.8201],[-73.2854,42.8341],[-73.2787,42.8334],[-73.2783,42.8376],[-73.2565,43.2601],[-73.2477,43.5232],[-73.2419,43.5294],[-73.2416,43.535],[-73.2501,43.5434],[-73.2478,43.5451],[-73.2504,43.5504],[-73.2486,43.5539],[-73.2545,43.5556],[-73.2526,43.5569],[-73.2586,43.565],[-73.269,43.5699],[-73.2679,43.5722],[-73.2809,43.5736],[-73.2849,43.5793],[-73.2953,43.5768],[-73.2973,43.5794],[-73.2921,43.5845],[-73.2969,43.5873],[-73.291,43.5992],[-73.298,43.61],[-73.3028,43.6098],[-73.3004,43.6178],[-73.3026,43.6257],[-73.3064,43.6283],[-73.3112,43.6241],[-73.3179,43.6285],[-73.3277,43.6259],[-73.3342,43.628],[-73.3401,43.6246],[-73.3445,43.6263],[-73.3488,43.6215],[-73.3543,43.6262],[-73.3719,43.6245],[-73.3698,43.6194],[-73.3764,43.6088],[-73.3725,43.6048],[-73.3774,43.5984],[-73.3835,43.5974],[-73.3821,43.5918],[-73.3869,43.5908],[-73.3825,43.5866],[-73.3853,43.5833],[-73.3833,43.5772],[-73.3958,43.5681],[-73.4286,43.584],[-73.4312,43.5883],[-73.4216,43.603],[-73.4237,43.6124],[-73.4177,43.6217],[-73.4284,43.6355],[-73.4265,43.6426],[-73.4155,43.6525],[-73.4041,43.6813],[-73.4047,43.6902],[-73.3955,43.6968],[-73.3859,43.7113],[-73.3706,43.7253],[-73.3699,43.7439],[-73.3508,43.7714],[-73.3582,43.7865],[-73.3768,43.7992],[-73.3807,43.8108],[-73.3925,43.8213],[-73.3882,43.8327],[-73.3767,43.8394],[-73.3726,43.8454],[-73.3823,43.8561],[-73.3742,43.8762],[-73.3837,43.8913],[-73.3962,43.9033],[-73.4086,43.9319],[-73.4057,43.9559],[-73.4125,43.9822],[-73.406,44.0114],[-73.4076,44.0211],[-73.4125,44.0283],[-73.4229,44.0325],[-73.4379,44.0451],[-73.4297,44.0786],[-73.4115,44.112],[-73.4161,44.1324],[-73.403,44.145],[-73.3958,44.1663],[-73.3972,44.1738],[-73.3898,44.1818],[-73.3906,44.1911],[-73.3623,44.2085],[-73.3505,44.2299],[-73.3428,44.2344],[-73.3434,44.2382],[-73.3304,44.2443],[-73.3237,44.2442],[-73.3127,44.2654],[-73.3122,44.2801],[-73.3242,44.31],[-73.324,44.3338],[-73.3346,44.3569],[-73.335,44.3644],[-73.3336,44.3723],[-73.315,44.3885],[-73.2936,44.4389],[-73.3001,44.4547],[-73.2992,44.4729],[-73.3067,44.5003],[-73.3208,44.5136],[-73.322,44.5253],[-73.3297,44.5296],[-73.3316,44.5359],[-73.339,44.5433],[-73.3388,44.548],[-73.3568,44.5579],[-73.375,44.5758],[-73.3757,44.582],[-73.3818,44.5893],[-73.3768,44.5996],[-73.3829,44.6122],[-73.3902,44.6184],[-73.3865,44.6269],[-73.3868,44.6364],[-73.3786,44.6415],[-73.3845,44.6467],[-73.3783,44.6522],[-73.3791,44.6568],[-73.3746,44.6619],[-73.3697,44.6635],[-73.3727,44.6687],[-73.3718,44.677],[-73.3672,44.6785],[-73.3701,44.6849],[-73.3613,44.6945],[-73.366,44.6976],[-73.3656,44.7418],[-73.3544,44.7553],[-73.3471,44.773],[-73.3357,44.7821],[-73.3332,44.7888],[-73.335,44.8041],[-73.3795,44.838],[-73.3816,44.8494],[-73.3798,44.857],[-73.3691,44.8667],[-73.3562,44.9045],[-73.339,44.9177],[-73.3382,44.9648],[-73.3502,44.9762],[-73.3546,44.9874],[-73.3432,45.0107],[-73.6502,45.003],[-73.8414,45.0021],[-74.1501,44.9914],[-74.3365,44.992],[-74.4654,44.9972],[-74.6631,44.9989],[-74.6705,45.0063],[-74.6733,45.0008],[-74.684,44.9997],[-74.702,45.0033],[-74.7262,44.9949]]],[[[-74.0407,40.7002],[-74.0399,40.6986],[-74.0384,40.6987],[-74.0407,40.7002]]],[[[-74.0472,40.6909],[-74.0436,40.6888],[-74.0439,40.6902],[-74.0472,40.6909]]]]},"properties":{"STUSAB":"NY","NAME":"New York","AREALAND":"122049248543","AREAWATER":"19256662532"}},
    {"type":"Feature","geometry":{"type":"Polygon","coordinates":[[[-75.5931,39.8377],[-75.5459,39.8392],[-75.499,39.8335],[-75.454,39.8207],[-75.4151,39.8019],[-75.3418,39.8461],[-75.3232,39.8498],[-75.2748,39.849],[-75.2571,39.8518],[-75.2214,39.8615],[-75.1877,39.8805],[-75.1444,39.8844],[-75.1359,39.8913],[-75.1294,39.9066],[-75.1363,39.9458],[-75.1291,39.9607],[-75.1051,39.9716],[-75.0732,39.9796],[-75.0626,39.9882],[-75.048,40.0097],[-75.0149,40.0199],[-74.9806,40.0459],[-74.9389,40.0661],[-74.9241,40.0712],[-74.9073,40.0708],[-74.8618,40.0835],[-74.8546,40.0933],[-74.8359,40.1035],[-74.8294,40.1192],[-74.8225,40.1268],[-74.7842,40.1205],[-74.7597,40.1338],[-74.7406,40.1355],[-74.7244,40.1464],[-74.7216,40.154],[-74.7223,40.1607],[-74.7338,40.1745],[-74.7556,40.1867],[-74.7714,40.2152],[-74.7953,40.2294],[-74.8423,40.2505],[-74.8682,40.2952],[-74.8916,40.313],[-74.9083,40.3169],[-74.9397,40.338],[-74.9445,40.3451],[-74.9489,40.3651],[-74.9666,40.3982],[-74.9959,40.4104],[-75.0286,40.404],[-75.0586,40.4182],[-75.0707,40.4568],[-75.067,40.4653],[-75.0677,40.4737],[-75.0627,40.4804],[-75.0681,40.5415],[-75.0998,40.5674],[-75.1155,40.5729],[-75.1402,40.5754],[-75.159,40.5648],[-75.1705,40.5642],[-75.1849,40.5683],[-75.1941,40.5761],[-75.1952,40.5803],[-75.1894,40.591],[-75.1923,40.6027],[-75.2018,40.6172],[-75.1907,40.62],[-75.1886,40.6246],[-75.1907,40.6359],[-75.2005,40.6492],[-75.1909,40.6619],[-75.1828,40.666],[-75.1768,40.6757],[-75.1806,40.6794],[-75.1969,40.6813],[-75.2039,40.6915],[-75.1944,40.714],[-75.1867,40.7195],[-75.1821,40.7315],[-75.1953,40.7455],[-75.1965,40.7516],[-75.179,40.7619],[-75.1716,40.7777],[-75.1344,40.7738],[-75.1231,40.7867],[-75.1085,40.7911],[-75.1008,40.7998],[-75.1002,40.8077],[-75.0839,40.8245],[-75.0855,40.8301],[-75.097,40.8393],[-75.0958,40.8471],[-75.0767,40.8499],[-75.066,40.8476],[-75.0638,40.8556],[-75.051,40.8657],[-75.0537,40.8737],[-75.0753,40.8942],[-75.0793,40.9139],[-75.0955,40.9241],[-75.1178,40.953],[-75.1202,40.9687],[-75.1347,40.972],[-75.1311,40.9905],[-75.0845,41.0159],[-75.0705,41.0186],[-75.0271,41.0395],[-75.0271,41.0453],[-75.0176,41.0559],[-75.0124,41.0673],[-74.9691,41.0868],[-74.9668,41.0934],[-74.9694,41.0961],[-74.9833,41.089],[-74.9918,41.0891],[-74.982,41.1085],[-74.9632,41.1147],[-74.9474,41.1237],[-74.9445,41.13],[-74.9238,41.138],[-74.9053,41.1557],[-74.8999,41.1663],[-74.8834,41.1796],[-74.8595,41.2188],[-74.8676,41.2286],[-74.8611,41.2436],[-74.8564,41.2497],[-74.8471,41.2528],[-74.8461,41.2634],[-74.83,41.2874],[-74.7922,41.3108],[-74.7956,41.3203],[-74.7673,41.3277],[-74.7551,41.3459],[-74.7207,41.3474],[-74.6977,41.3557],[-74.69,41.3615],[-74.69,41.3652],[-74.708,41.3787],[-74.7164,41.393],[-74.7368,41.3993],[-74.7418,41.407],[-74.7347,41.423],[-74.7387,41.4308],[-74.7586,41.4233],[-74.7727,41.4263],[-74.7891,41.4214],[-74.7951,41.4237],[-74.8011,41.4383],[-74.8082,41.4429],[-74.818,41.4405],[-74.8263,41.4316],[-74.832,41.4304],[-74.8577,41.4442],[-74.8926,41.4386],[-74.8964,41.4422],[-74.8892,41.4511],[-74.8902,41.4556],[-74.9066,41.4609],[-74.9092,41.4724],[-74.913,41.476],[-74.9429,41.4836],[-74.9582,41.4766],[-74.9828,41.4805],[-74.9856,41.4859],[-74.9823,41.4987],[-74.9842,41.5065],[-74.988,41.5089],[-75.0036,41.5083],[-75.0007,41.5186],[-75.0032,41.5235],[-75.0245,41.5346],[-75.0247,41.5401],[-75.016,41.5442],[-75.0188,41.5524],[-75.0281,41.5643],[-75.0405,41.5697],[-75.0472,41.5837],[-75.06,41.5908],[-75.0747,41.6065],[-75.0697,41.6101],[-75.0597,41.6104],[-75.0597,41.6176],[-75.0467,41.6156],[-75.0442,41.6181],[-75.0436,41.6233],[-75.0486,41.633],[-75.0495,41.6603],[-75.0595,41.6723],[-75.0513,41.68],[-75.0526,41.6881],[-75.069,41.7093],[-75.0662,41.7128],[-75.0497,41.7134],[-75.0548,41.7349],[-75.053,41.7518],[-75.0612,41.7648],[-75.0746,41.7713],[-75.0946,41.7684],[-75.1019,41.7696],[-75.1047,41.7744],[-75.1017,41.7875],[-75.0929,41.7965],[-75.0757,41.7996],[-75.0722,41.8141],[-75.0899,41.8117],[-75.113,41.8226],[-75.1134,41.8421],[-75.1166,41.8454],[-75.131,41.8453],[-75.1406,41.8522],[-75.1547,41.8485],[-75.1629,41.8506],[-75.1683,41.8587],[-75.1684,41.8693],[-75.1725,41.8723],[-75.178,41.8709],[-75.1854,41.8601],[-75.1954,41.8678],[-75.2046,41.8699],[-75.215,41.8673],[-75.2245,41.8576],[-75.2411,41.8673],[-75.25,41.8622],[-75.2583,41.8623],[-75.2643,41.8695],[-75.2575,41.8761],[-75.2596,41.8823],[-75.2717,41.8884],[-75.273,41.8966],[-75.2673,41.9061],[-75.2766,41.9222],[-75.2788,41.9387],[-75.2895,41.9432],[-75.2933,41.9543],[-75.3011,41.9534],[-75.3013,41.9481],[-75.3109,41.9491],[-75.328,41.9679],[-75.3416,41.9722],[-75.3375,41.9868],[-75.3422,41.9935],[-75.3596,41.9996],[-76.3448,41.9984],[-76.829,42.002],[-77.8284,41.9983],[-78.1215,42.0004],[-79.762,41.9988],[-79.7624,42.5161],[-80.0802,42.3942],[-80.5199,42.3271],[-80.5193,39.7214],[-78.3151,39.7229],[-76.9909,39.7198],[-75.7738,39.7222],[-75.7626,39.7438],[-75.7467,39.7651],[-75.7059,39.7999],[-75.6537,39.8247],[-75.5931,39.8377]]]},"properties":{"STUSAB":"PA","NAME":"Pennsylvania","AREALAND":"115882139822","AREAWATER":"3396949928"}},
    {"type":"Feature","geometry":{"type":"MultiPolygon","coordinates":[[[[-71.2084,41.6906],[-71.2611,41.7521],[-71.3285,41.7807],[-71.3295,41.7883],[-71.3405,41.797],[-71.3393,41.8085],[-71.3475,41.8232],[-71.3354,41.8356],[-71.3426,41.8447],[-71.334,41.8626],[-71.3409,41.8818],[-71.3388,41.8986],[-71.3815,41.8935],[-71.3814,42.0188],[-71.7992,42.0081],[-71.7872,41.6561],[-71.7977,41.4167],[-71.8181,41.4199],[-71.8254,41.4147],[-71.8424,41.4103],[-71.8422,41.3954],[-71.8331,41.3878],[-71.8306,41.3788],[-71.8379,41.3601],[-71.836,41.354],[-71.8313,41.3513],[-71.8294,41.3424],[-71.8575,41.3208],[-71.8665,41.3192],[-71.8921,41.3301],[-71.9073,41.3045],[-71.791,41.1841],[-71.7915,41.2722],[-71.7784,41.2751],[-71.7396,41.2754],[-71.72,41.2811],[-71.695,41.2826],[-71.6726,41.2891],[-71.6596,41.2967],[-71.5753,41.321],[-71.5266,41.3088],[-71.4948,41.3074],[-71.3745,41.339],[-71.25,41.3777],[-71.1193,41.4133],[-71.0886,41.4313],[-71.1211,41.4928],[-71.1316,41.5937],[-71.1403,41.6048],[-71.142,41.6125],[-71.1402,41.6239],[-71.1353,41.6285],[-71.1326,41.6604],[-71.1761,41.6682],[-71.1758,41.6715],[-71.1955,41.6751],[-71.2084,41.6906]]],[[[-71.6788,41.1589],[-71.6761,41.1415],[-71.6683,41.1283],[-71.6403,41.1084],[-71.6189,41.0991],[-71.5935,41.0958],[-71.5693,41.0972],[-71.5175,41.1071],[-71.4914,41.1251],[-71.477,41.1557],[-71.4786,41.1758],[-71.4898,41.1947],[-71.4846,41.2175],[-71.4893,41.2352],[-71.5164,41.2715],[-71.536,41.2862],[-71.5576,41.294],[-71.5916,41.2893],[-71.6245,41.2741],[-71.635,41.2637],[-71.6408,41.2501],[-71.643,41.2313],[-71.6705,41.1945],[-71.6788,41.1589]]]]},"properties":{"STUSAB":"RI","NAME":"Rhode Island","AREALAND":"2677770317","AREAWATER":"1323680036"}},
    {"type":"Feature","geometry":{"type":"Polygon","coordinates":[[[-72.0419,44.1567],[-72.0423,44.162],[-72.0472,44.1616],[-72.0518,44.1665],[-72.0583,44.1813],[-72.0662,44.1901],[-72.0643,44.1976],[-72.0587,44.202],[-72.0595,44.2106],[-72.0526,44.2178],[-72.0536,44.2253],[-72.0477,44.239],[-72.0615,44.2611],[-72.0583,44.2701],[-72.0648,44.2677],[-72.0685,44.2708],[-72.0586,44.2865],[-72.0329,44.3022],[-72.0328,44.3205],[-72.0091,44.3222],[-71.9881,44.3301],[-71.9814,44.3374],[-71.934,44.336],[-71.9124,44.3481],[-71.9006,44.347],[-71.8716,44.3367],[-71.8158,44.354],[-71.8124,44.3573],[-71.8163,44.3674],[-71.8123,44.3716],[-71.8157,44.375],[-71.8144,44.3819],[-71.8006,44.384],[-71.8035,44.3919],[-71.7945,44.399],[-71.7784,44.3998],[-71.762,44.407],[-71.7437,44.401],[-71.7354,44.41],[-71.7143,44.4095],[-71.7026,44.4135],[-71.6843,44.4236],[-71.6827,44.4273],[-71.677,44.4268],[-71.678,44.4353],[-71.6609,44.4399],[-71.6542,44.4588],[-71.6443,44.4603],[-71.639,44.4644],[-71.647,44.4699],[-71.6468,44.4732],[-71.6328,44.4838],[-71.6247,44.4817],[-71.6342,44.4788],[-71.6345,44.4756],[-71.6262,44.4745],[-71.6178,44.4858],[-71.6095,44.4842],[-71.5986,44.4868],[-71.5939,44.501],[-71.5859,44.4994],[-71.5881,44.5066],[-71.5829,44.5022],[-71.577,44.5021],[-71.5941,44.5216],[-71.5807,44.5246],[-71.5719,44.5379],[-71.5986,44.5548],[-71.597,44.5595],[-71.5896,44.5657],[-71.5597,44.564],[-71.5577,44.5704],[-71.5477,44.5714],[-71.5548,44.5794],[-71.5524,44.5844],[-71.5497,44.5783],[-71.5458,44.5779],[-71.5349,44.5879],[-71.5401,44.5885],[-71.5385,44.5942],[-71.5469,44.5908],[-71.546,44.5971],[-71.5552,44.5933],[-71.5509,44.601],[-71.5621,44.6012],[-71.5536,44.6061],[-71.5551,44.6252],[-71.5463,44.623],[-71.557,44.6295],[-71.5521,44.6273],[-71.5468,44.6298],[-71.5538,44.6304],[-71.5637,44.6372],[-71.5578,44.642],[-71.5628,44.6524],[-71.5771,44.6507],[-71.5801,44.6521],[-71.5753,44.6531],[-71.5752,44.6558],[-71.5827,44.6559],[-71.5874,44.6597],[-71.5849,44.6641],[-71.5879,44.6699],[-71.5815,44.6732],[-71.5966,44.6781],[-71.594,44.6834],[-71.5979,44.6922],[-71.5939,44.6964],[-71.6008,44.699],[-71.5994,44.7053],[-71.6186,44.7222],[-71.6171,44.7287],[-71.6261,44.7285],[-71.6251,44.7434],[-71.632,44.7521],[-71.6167,44.7563],[-71.6114,44.7653],[-71.5951,44.7754],[-71.5925,44.7827],[-71.5792,44.7849],[-71.5728,44.7909],[-71.5728,44.7992],[-71.5684,44.807],[-71.5769,44.8152],[-71.5732,44.8208],[-71.5618,44.8236],[-71.5573,44.8339],[-71.5511,44.837],[-71.5558,44.8486],[-71.5475,44.8554],[-71.5495,44.8621],[-71.5329,44.8702],[-71.5284,44.8777],[-71.5161,44.8845],[-71.5107,44.8904],[-71.5139,44.8943],[-71.5074,44.8995],[-71.5005,44.9047],[-71.4949,44.9043],[-71.496,44.9089],[-71.4932,44.9114],[-71.4999,44.9112],[-71.5044,44.9192],[-71.5157,44.9272],[-71.5132,44.9292],[-71.5162,44.9352],[-71.5228,44.9399],[-71.5171,44.9391],[-71.5148,44.9437],[-71.5192,44.9496],[-71.5159,44.9528],[-71.5163,44.9644],[-71.5236,44.9641],[-71.518,44.9677],[-71.5229,44.9662],[-71.522,44.9692],[-71.5372,44.9807],[-71.5368,44.9839],[-71.5413,44.9839],[-71.5384,44.9897],[-71.5331,44.9909],[-71.537,44.9935],[-71.5304,44.9994],[-71.5085,45.0079],[-71.4888,45.0008],[-71.4808,45.0023],[-71.4763,45.0094],[-71.465,45.0136],[-72.3119,45.0038],[-72.4504,45.0086],[-72.5554,45.008],[-72.6347,45.0147],[-72.847,45.0167],[-73.3432,45.0107],[-73.3546,44.9874],[-73.3502,44.9762],[-73.3382,44.9648],[-73.339,44.9177],[-73.3562,44.9045],[-73.3691,44.8667],[-73.3798,44.857],[-73.3816,44.8494],[-73.3795,44.838],[-73.335,44.8041],[-73.3332,44.7888],[-73.3357,44.7821],[-73.3471,44.773],[-73.3544,44.7553],[-73.3656,44.7418],[-73.366,44.6976],[-73.3613,44.6945],[-73.3701,44.6849],[-73.3672,44.6785],[-73.3718,44.677],[-73.3727,44.6687],[-73.3697,44.6635],[-73.3746,44.6619],[-73.3791,44.6568],[-73.3783,44.6522],[-73.3845,44.6467],[-73.3786,44.6415],[-73.3868,44.6364],[-73.3865,44.6269],[-73.3902,44.6184],[-73.3829,44.6122],[-73.3768,44.5996],[-73.3818,44.5893],[-73.3757,44.582],[-73.375,44.5758],[-73.3568,44.5579],[-73.3388,44.548],[-73.339,44.5433],[-73.3316,44.5359],[-73.3297,44.5296],[-73.322,44.5253],[-73.3208,44.5136],[-73.3067,44.5003],[-73.2992,44.4729],[-73.3001,44.4547],[-73.2936,44.4389],[-73.315,44.3885],[-73.3336,44.3723],[-73.335,44.3644],[-73.3346,44.3569],[-73.324,44.3338],[-73.3242,44.31],[-73.3122,44.2801],[-73.3127,44.2654],[-73.3237,44.2442],[-73.3304,44.2443],[-73.3434,44.2382],[-73.3428,44.2344],[-73.3505,44.2299],[-73.3623,44.2085],[-73.3906,44.1911],[-73.3898,44.1818],[-73.3972,44.1738],[-73.3958,44.1663],[-73.403,44.145],[-73.4161,44.1324],[-73.4115,44.112],[-73.4297,44.0786],[-73.4379,44.0451],[-73.4229,44.0325],[-73.4125,44.0283],[-73.4076,44.0211],[-73.406,44.0114],[-73.4125,43.9822],[-73.4057,43.9559],[-73.4086,43.9319],[-73.3962,43.9033],[-73.3837,43.8913],[-73.3742,43.8762],[-73.3823,43.8561],[-73.3726,43.8454],[-73.3767,43.8394],[-73.3882,43.8327],[-73.3925,43.8213],[-73.3807,43.8108],[-73.3768,43.7992],[-73.3582,43.7865],[-73.3508,43.7714],[-73.3699,43.7439],[-73.3706,43.7253],[-73.3859,43.7113],[-73.3955,43.6968],[-73.4047,43.6902],[-73.4041,43.6813],[-73.4155,43.6525],[-73.4265,43.6426],[-73.4284,43.6355],[-73.4177,43.6217],[-73.4237,43.6124],[-73.4216,43.603],[-73.4312,43.5883],[-73.4286,43.584],[-73.3958,43.5681],[-73.3833,43.5772],[-73.3853,43.5833],[-73.3825,43.5866],[-73.3869,43.5908],[-73.3821,43.5918],[-73.3835,43.5974],[-73.3774,43.5984],[-73.3725,43.6048],[-73.3764,43.6088],[-73.3698,43.6194],[-73.3719,43.6245],[-73.3543,43.6262],[-73.3488,43.6215],[-73.3445,43.6263],[-73.3401,43.6246],[-73.3342,43.628],[-73.3277,43.6259],[-73.3179,43.6285],[-73.3112,43.6241],[-73.3064,43.6283],[-73.3026,43.6257],[-73.3004,43.6178],[-73.3028,43.6098],[-73.298,43.61],[-73.291,43.5992],[-73.2969,43.5873],[-73.2921,43.5845],[-73.2973,43.5794],[-73.2953,43.5768],[-73.2849,43.5793],[-73.2809,43.5736],[-73.2679,43.5722],[-73.269,43.5699],[-73.2586,43.565],[-73.2526,43.5569],[-73.2545,43.5556],[-73.2486,43.5539],[-73.2504,43.5504],[-73.2478,43.5451],[-73.2501,43.5434],[-73.2416,43.535],[-73.2419,43.5294],[-73.2477,43.5232],[-73.2565,43.2601],[-73.2783,42.8376],[-73.2787,42.8334],[-73.2854,42.8341],[-73.2871,42.8201],[-73.2837,42.8139],[-73.2909,42.8019],[-73.2764,42.746],[-72.4584,42.7269],[-72.4734,42.7462],[-72.477,42.7608],[-72.4905,42.7727],[-72.4977,42.7734],[-72.4996,42.7688],[-72.5084,42.7644],[-72.5155,42.7656],[-72.5165,42.7691],[-72.5093,42.775],[-72.5087,42.7795],[-72.5415,42.8071],[-72.5474,42.8395],[-72.5571,42.8532],[-72.5526,42.885],[-72.5334,42.8953],[-72.5304,42.9111],[-72.5245,42.9151],[-72.5269,42.9414],[-72.5342,42.9488],[-72.5338,42.9526],[-72.5184,42.9631],[-72.4922,42.9677],[-72.4816,42.974],[-72.4737,42.9721],[-72.4617,42.9829],[-72.4654,42.9896],[-72.4625,42.9974],[-72.4587,43.0009],[-72.4494,43.0003],[-72.4433,43.0076],[-72.4581,43.0183],[-72.4626,43.0258],[-72.4604,43.0414],[-72.4678,43.0527],[-72.4443,43.0716],[-72.434,43.0845],[-72.4432,43.1028],[-72.4335,43.1106],[-72.4328,43.1202],[-72.4423,43.1293],[-72.4408,43.1366],[-72.4521,43.1386],[-72.4574,43.1475],[-72.4521,43.1532],[-72.4528,43.1728],[-72.4439,43.1798],[-72.4505,43.1926],[-72.4382,43.2029],[-72.441,43.2182],[-72.4342,43.2319],[-72.4395,43.2441],[-72.4388,43.252],[-72.4365,43.2569],[-72.4216,43.2634],[-72.416,43.2702],[-72.4089,43.282],[-72.4028,43.3024],[-72.3953,43.3127],[-72.4106,43.3311],[-72.3899,43.3566],[-72.4031,43.3577],[-72.4126,43.3623],[-72.416,43.3765],[-72.4134,43.3835],[-72.4035,43.3916],[-72.3958,43.4375],[-72.3904,43.4509],[-72.3926,43.4669],[-72.3825,43.4759],[-72.38,43.49],[-72.3851,43.5007],[-72.3982,43.5104],[-72.3961,43.5234],[-72.3941,43.5275],[-72.3877,43.5296],[-72.3807,43.5404],[-72.383,43.5634],[-72.3801,43.565],[-72.3798,43.5742],[-72.3283,43.6011],[-72.3284,43.6071],[-72.3332,43.6103],[-72.3348,43.618],[-72.3274,43.6307],[-72.3291,43.6355],[-72.3147,43.6419],[-72.3136,43.6569],[-72.3031,43.6686],[-72.3014,43.6758],[-72.306,43.6834],[-72.3051,43.6953],[-72.2997,43.7061],[-72.2711,43.7339],[-72.2645,43.7339],[-72.2342,43.746],[-72.2185,43.7655],[-72.2052,43.7709],[-72.2055,43.7846],[-72.1962,43.7909],[-72.1841,43.8064],[-72.1889,43.8212],[-72.1824,43.8341],[-72.1831,43.8447],[-72.188,43.8552],[-72.1846,43.8641],[-72.1679,43.8691],[-72.1736,43.8796],[-72.1721,43.885],[-72.1597,43.8877],[-72.1505,43.9021],[-72.1205,43.9196],[-72.1169,43.9338],[-72.1183,43.9465],[-72.1057,43.9498],[-72.099,43.9576],[-72.1007,43.963],[-72.0909,43.9658],[-72.106,43.97],[-72.1144,43.9681],[-72.112,43.986],[-72.117,43.9942],[-72.1041,44.0024],[-72.1058,44.0123],[-72.1028,44.0146],[-72.0969,44.015],[-72.0935,44.0094],[-72.0905,44.0099],[-72.0954,44.0218],[-72.0915,44.0244],[-72.0827,44.0218],[-72.0813,44.0284],[-72.0748,44.0324],[-72.0783,44.0434],[-72.0619,44.0496],[-72.0689,44.0543],[-72.0681,44.0574],[-72.0573,44.0583],[-72.0483,44.0697],[-72.0529,44.0763],[-72.0318,44.0785],[-72.0453,44.0873],[-72.0333,44.0905],[-72.0313,44.1004],[-72.0395,44.1035],[-72.0439,44.0966],[-72.0479,44.0966],[-72.0521,44.1002],[-72.0554,44.1108],[-72.0531,44.1195],[-72.0451,44.1247],[-72.0373,44.1249],[-72.0333,44.1314],[-72.042,44.137],[-72.0428,44.151],[-72.0389,44.1563],[-72.0419,44.1567]]]},"properties":{"STUSAB":"VT","NAME":"Vermont","AREALAND":"23872616439","AREAWATER":"1030605438"}}
  ]
}
